"","abv","ibu","id","name","style","brewery_id","ounces","city","state","lon","lat","brewery"
"1",0.061,60,1979,"Bitter Bitch","American Pale Ale (APA)",177,12,"Gary"," IN",-87.3464271,41.5933696,"18th Street Brewery"
"2",0.044,42,876,"Bitter American","American Pale Ale (APA)",368,12,"San Francisco"," CA",-122.4194155,37.7749295,"21st Amendment Brewery"
"3",0.07,70,799,"21st Amendment IPA (2006)","American IPA",368,12,"San Francisco"," CA",-122.4194155,37.7749295,"21st Amendment Brewery"
"4",0.07,70,797,"Brew Free! or Die IPA (2008)","American IPA",368,12,"San Francisco"," CA",-122.4194155,37.7749295,"21st Amendment Brewery"
"5",0.07,70,796,"Brew Free! or Die IPA (2009)","American IPA",368,12,"San Francisco"," CA",-122.4194155,37.7749295,"21st Amendment Brewery"
"6",0.097,94,432,"Hop Crisis","American Double / Imperial IPA",368,12,"San Francisco"," CA",-122.4194155,37.7749295,"21st Amendment Brewery"
"7",0.044,42,353,"Bitter American (2011)","American Pale Ale (APA)",368,12,"San Francisco"," CA",-122.4194155,37.7749295,"21st Amendment Brewery"
"8",0.07,65,10,"Brew Free! or Die IPA","American IPA",368,12,"San Francisco"," CA",-122.4194155,37.7749295,"21st Amendment Brewery"
"9",0.07,82,2519,"Bimini Twist","American IPA",67,12,"St Petersburg"," FL",30.3350986,59.9342802,"3 Daughters Brewing"
"10",0.045,18,2544,"Send Help","American Blonde Ale",60,12,"Saint Louis"," MO",-90.1994042,38.6270025,"4 Hands Brewing Company"
"11",0.05,28,1870,"Contact High","American Pale Wheat Ale",60,12,"Saint Louis"," MO",-90.1994042,38.6270025,"4 Hands Brewing Company"
"12",0.05,45,2602,"Citrafest","American IPA",27,16,"Columbus"," IN",-82.9987942,39.9611755,"450 North Brewing Company"
"13",0.069,65,2219,"Scarecrow","American IPA",27,16,"Columbus"," IN",-82.9987942,39.9611755,"450 North Brewing Company"
"14",0.059,75,972,"Rude Parrot IPA","American IPA",481,16,"Gig Harbor"," WA",-122.5801293,47.329264,"7 Seas Brewing Company"
"15",0.084,82,47,"Ballz Deep Double IPA","American Double / Imperial IPA",481,16,"Gig Harbor"," WA",-122.5801293,47.329264,"7 Seas Brewing Company"
"16",0.065,52,516,"Jockamo IPA","American IPA",533,12,"Abita Springs"," LA",-90.0375755,30.4785257,"Abita Brewing Company"
"17",0.082,68,2540,"Citra Ass Down","American IPA",62,16,"Louisville"," KY",-85.7584557,38.2526647,"Against The Grain Brewery"
"18",0.08,68,2686,"Citra Ass Down","American Double / Imperial IPA",1,16,"Louisville"," KY",-85.7584557,38.2526647,"Against the Grain Brewery"
"19",0.042,42,2683,"A Beer","American Pale Ale (APA)",1,16,"Louisville"," KY",-85.7584557,38.2526647,"Against the Grain Brewery"
"20",0.076,68,2678,"Rico Sauvin","American Double / Imperial IPA",1,16,"Louisville"," KY",-85.7584557,38.2526647,"Against the Grain Brewery"
"21",0.06,65,2675,"Pile of Face","American IPA",1,16,"Louisville"," KY",-85.7584557,38.2526647,"Against the Grain Brewery"
"22",0.05,35,1162,"Oatmeal PSA","American Pale Ale (APA)",367,16,"Kent"," WA",-81.3578859,41.1536674,"Airways Brewing Company"
"23",0.053,36,2402,"Klickitat Pale Ale","American Pale Ale (APA)",117,12,"Portland"," OR",-122.6764816,45.5230622,"Alameda Brewing"
"24",0.082,103,2401,"Yellow Wolf Imperial IPA","American Double / Imperial IPA",117,12,"Portland"," OR",-122.6764816,45.5230622,"Alameda Brewing"
"25",0.053,40,1921,"Freeride APA","American Pale Ale (APA)",270,12,"Juneau"," AK",-134.4197222,58.3019444,"Alaskan Brewing Company"
"26",0.062,43,837,"Desolation IPA","American IPA",401,16,"Washougal"," WA",-122.3534247,45.5826188,"Amnesia Brewing Company"
"27",0.07,80,1327,"Hop Ottin' IPA","American IPA",171,12,"Boonville"," CA",-123.3671551,39.0089749,"Anderson Valley Brewing Company"
"28",0.058,15,1326,"Boont Amber Ale","American Amber / Red Ale",171,12,"Boonville"," CA",-123.3671551,39.0089749,"Anderson Valley Brewing Company"
"29",0.058,15,811,"Boont Amber Ale (2010)","American Amber / Red Ale",171,12,"Boonville"," CA",-123.3671551,39.0089749,"Anderson Valley Brewing Company"
"30",0.07,80,367,"Hop Ottin' IPA (2011)","American IPA",171,12,"Boonville"," CA",-123.3671551,39.0089749,"Anderson Valley Brewing Company"
"31",0.058,15,78,"Boont Amber Ale (2011)","American Amber / Red Ale",171,12,"Boonville"," CA",-123.3671551,39.0089749,"Anderson Valley Brewing Company"
"32",0.055,28,76,"Poleeko Gold Pale Ale (2009)","American Pale Ale (APA)",171,12,"Boonville"," CA",-123.3671551,39.0089749,"Anderson Valley Brewing Company"
"33",0.071,75,2511,"Long Leaf","American IPA",69,16,"Boone"," NC",-81.6745517,36.216795,"Appalachian Mountain Brewery"
"34",0.047,19,2510,"Honey Badger Blonde","American Blonde Ale",69,16,"Boone"," NC",-81.6745517,36.216795,"Appalachian Mountain Brewery"
"35",0.06,55,413,"Sky High Rye","American Pale Ale (APA)",541,12,"Battle Creek"," MI",-85.1797142,42.3211522,"Arcadia Brewing Company"
"36",0.062,17,390,"Whitsun","American Pale Wheat Ale",541,12,"Battle Creek"," MI",-85.1797142,42.3211522,"Arcadia Brewing Company"
"37",0.07,45,1322,"Green Bullet Organic India Pale Ale","American IPA",429,16,"Boulder"," CO",-105.2705456,40.0149856,"Asher Brewing Company"
"38",0.06,69,428,"Shiva IPA","American IPA",528,12,"Asheville"," NC",-82.5514869,35.5950581,"Asheville Brewing Company"
"39",0.056,27,597,"This Season's Blonde","American Blonde Ale",523,12,"Aspen"," CO",-106.8175387,39.1910983,"Aspen Brewing Company"
"40",0.07,67,596,"Independence Pass Ale","American IPA",523,12,"Aspen"," CO",-106.8175387,39.1910983,"Aspen Brewing Company"
"41",0.082,138,980,"Bitter Bitch Imperial IPA","American Double / Imperial IPA",374,12,"Astoria"," OR",-123.8312534,46.1878841,"Astoria Brewing Company"
"42",0.06,35,978,"Old Red Beard Amber Ale","American Amber / Red Ale",374,12,"Astoria"," OR",-123.8312534,46.1878841,"Astoria Brewing Company"
"43",0.075,115,2503,"Hop A-Peel","American Double / Imperial IPA",72,16,"Detroit"," MI",-83.0457538,42.331427,"Atwater Brewery"
"44",0.045,8,534,"Dirty Blonde Ale","American Blonde Ale",72,12,"Detroit"," MI",-83.0457538,42.331427,"Atwater Brewery"
"45",0.05,62,528,"Grand Circus IPA","American IPA",72,12,"Detroit"," MI",-83.0457538,42.331427,"Atwater Brewery"
"46",0.063,69,107,"Avery India Pale Ale","American IPA",37,12,"Boulder"," CO",-105.2705456,40.0149856,"Avery Brewing Company"
"47",0.048,23,1228,"Mad Beach","American Pale Wheat Ale",360,12,"Fuquay-Varina"," NC",-78.8000128,35.5843235,"Aviator Brewing Company"
"48",0.061,41,702,"Hot Rod Red","American Amber / Red Ale",360,12,"Fuquay-Varina"," NC",-78.8000128,35.5843235,"Aviator Brewing Company"
"49",0.06,43,1875,"Naked Pig Pale Ale","American Pale Ale (APA)",286,12,"Gadsden"," AL",-86.0066386,34.014264,"Back Forty Beer Company"
"50",0.068,70,966,"Topcutter India Pale Ale","American IPA",483,12,"Yakima"," WA",-120.5058987,46.6020711,"Bale Breaker Brewing Company"
"51",0.044,38,965,"Field 41 Pale Ale","American Pale Ale (APA)",483,12,"Yakima"," WA",-120.5058987,46.6020711,"Bale Breaker Brewing Company"
"52",0.038,40,2105,"Even Keel","American IPA",34,12,"San Diego"," CA",-117.1610838,32.715738,"Ballast Point Brewing Company"
"53",0.07,75,1400,"Big Eye India Pale Ale","American IPA",34,12,"San Diego"," CA",-117.1610838,32.715738,"Ballast Point Brewing Company"
"54",0.07,70,1018,"Sculpin IPA","American IPA",34,12,"San Diego"," CA",-117.1610838,32.715738,"Ballast Point Brewing Company"
"55",0.035,45,1643,"Banner American Ale","American Amber / Red Ale",318,12,"Williamsburg"," MA",-76.7074571,37.2707022,"Banner Beer Company"
"56",0.07,46,2618,"Thai.p.a","American IPA",20,16,"Granger"," IN",-86.1108377,41.7533819,"Bare Hands Brewery"
"57",0.06,60,2005,"Barrio Blanco","American IPA",251,12,"Tucson"," AZ",-110.926479,32.2217429,"Barrio Brewing Company"
"58",0.067,60,2323,"Ultra Gnar Gnar IPA","American IPA",116,12,"Portland"," OR",-122.6764816,45.5230622,"Base Camp Brewing Co."
"59",0.067,70,1965,"Sky-Five","American IPA",258,12,"Minneapolis"," MN",-93.2650108,44.977753,"Bauhaus Brew Labs"
"60",0.055,35,533,"Amber Road","American Amber / Red Ale",292,12,"Lewiston"," ME",-117.0011889,46.4004089,"Baxter Brewing Company"
"61",0.049,28,183,"Pamola Xtra Pale Ale","American Pale Ale (APA)",292,12,"Lewiston"," ME",-117.0011889,46.4004089,"Baxter Brewing Company"
"62",0.069,69,182,"Stowaway IPA","American IPA",292,12,"Lewiston"," ME",-117.0011889,46.4004089,"Baxter Brewing Company"
"63",0.088,108,1806,"Hoptopus Double IPA","American Double / Imperial IPA",306,16,"Virginia Beach"," VA",-75.977985,36.8529263,"Beach Brewing Company"
"64",0.058,45,2423,"Fenway American Pale Ale","American Pale Ale (APA)",103,12,"Lowell"," MA",-71.3161718,42.6334247,"Beer Works Brewery"
"65",0.068,85,2420,"Back Bay IPA","American IPA",103,12,"Lowell"," MA",-71.3161718,42.6334247,"Beer Works Brewery"
"66",0.057,27,2556,"Nordic Blonde","American Blonde Ale",53,12,"Roseville"," MN",-121.2880059,38.7521235,"Bent Brewstillery"
"67",0.072,87,2410,"Harness the Winter","American IPA",75,12,"Duluth"," MN",-92.1004852,46.7866719,"Bent Paddle Brewing Company"
"68",0.062,68,1901,"Bent Hop Golden IPA","American IPA",75,12,"Duluth"," MN",-92.1004852,46.7866719,"Bent Paddle Brewing Company"
"69",0.053,20,1317,"Steel Rail Extra Pale Ale","American Pale Ale (APA)",278,12,"South Deerfield"," MA",-72.6078667,42.4773097,"Berkshire Brewing Company"
"70",0.095,104,1762,"Hemlock Double IPA","American Double / Imperial IPA",220,12,"Broomfield"," CO",-105.0866504,39.9205411,"Big Choice Brewing"
"71",0.067,85,1067,"Disconnected Red","American Amber / Red Ale",220,16,"Broomfield"," CO",-105.0866504,39.9205411,"Big Choice Brewing"
"72",0.075,60,2585,"Galaxy IPA","American IPA",40,16,"Murphysboro"," IL",-89.3350888,37.7644952,"Big Muddy Brewing"
"73",0.06,55,632,"House Brand IPA","American IPA",519,12,"Chattanooga"," TN",-85.3096801,35.0456297,"Big River Brewing Company"
"74",0.062,65,1714,"Big Sky IPA","American IPA",336,12,"Missoula"," MT",-113.996586,46.8787176,"Big Sky Brewing Company"
"75",0.05,35,1712,"Montana Trout Slayer Ale","American Pale Wheat Ale",336,12,"Missoula"," MT",-113.996586,46.8787176,"Big Sky Brewing Company"
"76",0.05,35,766,"Montana Trout Slayer Ale (2012)","American Pale Wheat Ale",336,12,"Missoula"," MT",-113.996586,46.8787176,"Big Sky Brewing Company"
"77",0.062,65,579,"Big Sky IPA (2012)","American IPA",336,12,"Missoula"," MT",-113.996586,46.8787176,"Big Sky Brewing Company"
"78",0.05,35,35,"Montana Trout Slayer Ale (2009)","American Pale Wheat Ale",336,12,"Missoula"," MT",-113.996586,46.8787176,"Big Sky Brewing Company"
"79",0.069,81,2096,"Arcus IPA","American IPA",221,12,"Odessa"," FL",-102.3676431,31.8456816,"Big Storm Brewing Company"
"80",0.058,38,2095,"Wavemaker","American Amber / Red Ale",221,12,"Odessa"," FL",-102.3676431,31.8456816,"Big Storm Brewing Company"
"81",0.053,43,1257,"Jack Pine Savage","American Pale Ale (APA)",444,16,"Vadnais Heights"," MN",-93.0738305,45.0574658,"Big Wood Brewery"
"82",0.098,76,1255,"Bad Axe Imperial IPA","American Double / Imperial IPA",444,16,"Vadnais Heights"," MN",-93.0738305,45.0574658,"Big Wood Brewery"
"83",0.066,50,985,"Bark Bite IPA","American IPA",444,16,"Vadnais Heights"," MN",-93.0738305,45.0574658,"Big Wood Brewery"
"84",0.055,45,2508,"Jalapeno Pale Ale","American Pale Ale (APA)",70,16,"Charlotte"," NC",-80.8431267,35.2270869,"Birdsong Brewing Company"
"85",0.045,16,2412,"Deception","American Blonde Ale",112,12,"Temecula"," CA",-117.1483648,33.4936391,"Black Market Brewing Company"
"86",0.075,35,1898,"Blackmarket Rye IPA","American IPA",112,12,"Temecula"," CA",-117.1483648,33.4936391,"Black Market Brewing Company"
"87",0.058,44,1896,"Aftermath Pale Ale","American Pale Ale (APA)",112,12,"Temecula"," CA",-117.1483648,33.4936391,"Black Market Brewing Company"
"88",0.066,44,1847,"Colorado Red Ale","American Amber / Red Ale",294,12,"Denver"," CO",-104.990251,39.7392358,"Black Shirt Brewing Company"
"89",0.046,20,2484,"Bomber Mountain Amber Ale","American Amber / Red Ale",79,12,"Sheridan"," WY",-106.9561791,44.7971939,"Black Tooth Brewing Company"
"90",0.048,47,2634,"Nordskye ","American IPA",12,12,"Marquette"," MI",-87.9298002,43.0384666,"Blackrocks Brewery"
"91",0.07,51,1481,"51K IPA","American IPA",12,12,"Marquette"," MI",-87.9298002,43.0384666,"Blackrocks Brewery"
"92",0.046,35,611,"834 Happy As Ale","American Pale Ale (APA)",380,12,"Lincoln"," NE",-96.6851982,40.8257625,"Blue Blood Brewing Company"
"93",0.08,80,1812,"Quarter Mile Double IPA","American Double / Imperial IPA",304,12,"Canton"," MA",-81.378447,40.7989473,"Blue Hills Brewery"
"94",0.059,60,1547,"Full Nelson Pale Ale","American Pale Ale (APA)",382,12,"Afton"," VA",-92.7835373,44.9027452,"Blue Mountain Brewery"
"95",0.059,60,119,"Full Nelson Pale Ale (2010)","American Pale Ale (APA)",382,12,"Afton"," VA",-92.7835373,44.9027452,"Blue Mountain Brewery"
"96",0.044,16,667,"Blue Point Summer Ale","American Blonde Ale",489,12,"Patchogue"," NY",-73.019343,40.7659783,"Blue Point Brewing Company"
"97",0.042,30,1891,"Longhop IPA","American IPA",281,16,"Ridgefield Park"," NJ",-74.0215285,40.8570442,"Bolero Snort Brewery"
"98",0.066,72,2422,"Firestarter India Pale Ale","American IPA",107,12,"Eagle"," CO",-84.5151842,39.110673,"Bonfire Brewing Company"
"99",0.053,45,1183,"Kindler Pale Ale","American Pale Ale (APA)",107,12,"Eagle"," CO",-84.5151842,39.110673,"Bonfire Brewing Company"
"100",0.066,72,633,"Firestarter India Pale Ale","American IPA",107,16,"Eagle"," CO",-84.5151842,39.110673,"Bonfire Brewing Company"
"101",0.065,45,1629,"Rebel IPA","American IPA",300,16,"Boston"," MA",-71.0588801,42.3600825,"Boston Beer Company"
"102",0.053,7,1144,"Samuel Adams Summer Ale","American Pale Wheat Ale",300,12,"Boston"," MA",-71.0588801,42.3600825,"Boston Beer Company"
"103",0.049,35,1395,"Hazed & Infused","American Pale Ale (APA)",417,12,"Boulder"," CO",-105.2705456,40.0149856,"Boulder Beer Company"
"104",0.057,35,808,"Hoopla Pale Ale","American Pale Ale (APA)",417,12,"Boulder"," CO",-105.2705456,40.0149856,"Boulder Beer Company"
"105",0.049,35,81,"Hazed & Infused (2010)","American Pale Ale (APA)",417,12,"Boulder"," CO",-105.2705456,40.0149856,"Boulder Beer Company"
"106",0.062,80,2596,"Heavy Lifting","American IPA",31,12,"Kansas City"," MO",-94.5785667,39.0997265,"Boulevard Brewing Company"
"107",0.07,80,1289,"Bozone HopZone IPA","American IPA",219,12,"Bozeman"," MT",-111.0429339,45.6769979,"Bozeman Brewing Company"
"108",0.052,40,2167,"Evil Owl","American Amber / Red Ale",207,12,"San Antonio"," TX",-98.4936282,29.4241219,"Branchline Brewing Company"
"109",0.042,9,1522,"Agave Wheat","American Pale Wheat Ale",391,12,"Denver"," CO",-104.990251,39.7392358,"Breckenridge Brewery"
"110",0.045,15,397,"SummerBright Ale","American Pale Wheat Ale",391,12,"Denver"," CO",-104.990251,39.7392358,"Breckenridge Brewery"
"111",0.062,68,193,"Lucky U IPA","American IPA",391,12,"Denver"," CO",-104.990251,39.7392358,"Breckenridge Brewery"
"112",0.054,19,83,"Avalanche Ale","American Amber / Red Ale",391,12,"Denver"," CO",-104.990251,39.7392358,"Breckenridge Brewery"
"113",0.072,60,1801,"Last Stop IPA","American IPA",308,12,"Tampa"," FL",-82.4571776,27.950575,"Brew Bus Brewing"
"114",0.055,28,1799,"Are Wheat There Yet?","American Pale Wheat Ale",308,12,"Tampa"," FL",-82.4571776,27.950575,"Brew Bus Brewing"
"115",0.05,15,921,"Northern Lights Amber Ale","American Amber / Red Ale",493,12,"Anchorage"," AK",-149.9002778,61.2180556,"Broken Tooth Brewing Company"
"116",0.052,17,920,"Polar Pale Ale","American Pale Ale (APA)",493,12,"Anchorage"," AK",-149.9002778,61.2180556,"Broken Tooth Brewing Company"
"117",0.061,64,648,"Fairweather IPA","American IPA",493,12,"Anchorage"," AK",-149.9002778,61.2180556,"Broken Tooth Brewing Company"
"118",0.062,42,28,"Tule Duck Red Ale (Current)","American Amber / Red Ale",530,16,"Reno"," NV",-119.8138027,39.5296329,"Buckbean Brewing Company"
"119",0.06,40,2125,"1836","American Blonde Ale",214,12,"Houston"," TX",-95.3698028,29.7604267,"Buffalo Bayou Brewing Company"
"120",0.09,118,2123,"More Cowbell","American Double / Imperial IPA",214,16,"Houston"," TX",-95.3698028,29.7604267,"Buffalo Bayou Brewing Company"
"121",0.055,40,2478,"Pale Alement","American Pale Ale (APA)",24,12,"Michigan City"," IN",-86.8950297,41.7075394,"Burn 'Em Brewing"
"122",0.099,115,2471,"Hopkick Dropkick","American Double / Imperial IPA",24,12,"Michigan City"," IN",-86.8950297,41.7075394,"Burn 'Em Brewing"
"123",0.068,16,2160,"Joey Wheat","American Pale Wheat Ale",24,16,"Michigan City"," IN",-86.8950297,41.7075394,"Burn 'Em Brewing"
"124",0.072,86,2158,"3:33 Black IPA","American IPA",24,16,"Michigan City"," IN",-86.8950297,41.7075394,"Burn 'Em Brewing"
"125",0.055,40,2054,"Pale Alement","American Pale Ale (APA)",24,16,"Michigan City"," IN",-86.8950297,41.7075394,"Burn 'Em Brewing"
"126",0.056,36,668,"Mucho Aloha Hawaiian Pale Ale","American Pale Ale (APA)",517,12,"Carlsbad"," CA",-117.3505939,33.1580933,"Butcher's Brewing"
"127",0.053,25,2214,"Horny Toad Cerveza","American Blonde Ale",182,16,"Oklahoma City"," OK",-97.5164276,35.4675602,"COOP Ale Works"
"128",0.063,35,2213,"Native Amber","American Amber / Red Ale",182,16,"Oklahoma City"," OK",-97.5164276,35.4675602,"COOP Ale Works"
"129",0.068,100,1442,"F5 IPA","American IPA",182,16,"Oklahoma City"," OK",-97.5164276,35.4675602,"COOP Ale Works"
"130",0.063,35,170,"Native Amber (2013)","American Amber / Red Ale",182,16,"Oklahoma City"," OK",-97.5164276,35.4675602,"COOP Ale Works"
"131",0.053,25,169,"Horny Toad Cerveza (2013)","American Blonde Ale",182,16,"Oklahoma City"," OK",-97.5164276,35.4675602,"COOP Ale Works"
"132",0.068,100,2315,"Hopportunity Knocks IPA","American IPA",155,12,"Ashland"," OR",-122.7094767,42.1945758,"Caldera Brewing Company"
"133",0.056,55,1419,"Caldera Pale Ale","American Pale Ale (APA)",155,12,"Ashland"," OR",-122.7094767,42.1945758,"Caldera Brewing Company"
"134",0.054,24,794,"Ashland Amber Ale (2009)","American Amber / Red Ale",155,12,"Ashland"," OR",-122.7094767,42.1945758,"Caldera Brewing Company"
"135",0.061,94,793,"Caldera IPA (2009)","American IPA",155,12,"Ashland"," OR",-122.7094767,42.1945758,"Caldera Brewing Company"
"136",0.061,94,792,"Caldera IPA (2007)","American IPA",155,12,"Ashland"," OR",-122.7094767,42.1945758,"Caldera Brewing Company"
"137",0.056,55,791,"Caldera Pale Ale (2010)","American Pale Ale (APA)",155,12,"Ashland"," OR",-122.7094767,42.1945758,"Caldera Brewing Company"
"138",0.056,55,790,"Caldera Pale Ale (2009)","American Pale Ale (APA)",155,12,"Ashland"," OR",-122.7094767,42.1945758,"Caldera Brewing Company"
"139",0.056,55,789,"Caldera Pale Ale (2005)","American Pale Ale (APA)",155,12,"Ashland"," OR",-122.7094767,42.1945758,"Caldera Brewing Company"
"140",0.056,55,788,"Caldera Pale Ale (2007)","American Pale Ale (APA)",155,12,"Ashland"," OR",-122.7094767,42.1945758,"Caldera Brewing Company"
"141",0.056,55,38,"Caldera Pale Ale (2011)","American Pale Ale (APA)",155,12,"Ashland"," OR",-122.7094767,42.1945758,"Caldera Brewing Company"
"142",0.054,24,37,"Ashland Amber Ale","American Amber / Red Ale",155,12,"Ashland"," OR",-122.7094767,42.1945758,"Caldera Brewing Company"
"143",0.061,94,36,"Caldera IPA","American IPA",155,12,"Ashland"," OR",-122.7094767,42.1945758,"Caldera Brewing Company"
"144",0.09,130,2067,"Dead-Eye DIPA","American Double / Imperial IPA",230,16,"Gloucester"," MA",-70.6619888,42.6159285,"Cape Ann Brewing Company"
"145",0.055,64,2066,"Fisherman's IPA","American IPA",230,12,"Gloucester"," MA",-70.6619888,42.6159285,"Cape Ann Brewing Company"
"146",0.055,30,2064,"Fisherman's Brew","American Amber / Red Ale",230,12,"Gloucester"," MA",-70.6619888,42.6159285,"Cape Ann Brewing Company"
"147",0.055,35,1928,"Cape Cod Red","American Amber / Red Ale",267,16,"Hyannis"," MA",-70.2881124,41.6524911,"Cape Cod Beer"
"148",0.049,10,1927,"Beach Blonde","American Blonde Ale",267,16,"Hyannis"," MA",-70.2881124,41.6524911,"Cape Cod Beer"
"149",0.056,55,1954,"Ghost Ship White IPA","American IPA",192,12,"Middleton"," WI",-89.5042876,43.0972174,"Capital Brewery"
"150",0.062,70,1177,"Mutiny IPA","American IPA",192,12,"Middleton"," WI",-89.5042876,43.0972174,"Capital Brewery"
"151",0.078,80,1940,"077XX","American Double / Imperial IPA",222,16,"Atlantic Highlands"," NJ",-74.034306,40.4078864,"Carton Brewing Company"
"152",0.042,35,1439,"Boat Beer","American IPA",222,12,"Atlantic Highlands"," NJ",-74.034306,40.4078864,"Carton Brewing Company"
"153",0.085,90,2600,"Gone A-Rye","American Double / Imperial IPA",29,16,"Seven Points"," TX",-96.2130315,32.3204226,"Cedar Creek Brewery"
"154",0.068,70,2052,"Dankosaurus","American IPA",29,16,"Seven Points"," TX",-96.2130315,32.3204226,"Cedar Creek Brewery"
"155",0.051,36,1182,"Elliott's Phoned Home Pale Ale","American Pale Ale (APA)",29,16,"Seven Points"," TX",-96.2130315,32.3204226,"Cedar Creek Brewery"
"156",0.052,42,1247,"Ray Ray’s Pale Ale","American Pale Ale (APA)",122,12,"Ashland"," VA",-122.7094767,42.1945758,"Center of the Universe Brewing C..."
"157",0.072,85,1648,"Lucky Day IPA","American IPA",350,16,"San Luis Obispo"," CA",-120.6596156,35.2827524,"Central Coast Brewing Company"
"158",0.095,99,1647,"Terrace Hill Double IPA","American Double / Imperial IPA",350,16,"San Luis Obispo"," CA",-120.6596156,35.2827524,"Central Coast Brewing Company"
"159",0.07,65,1933,"Missile IPA","American IPA",236,12,"Charlottesville"," VA",-78.4766781,38.0293059,"Champion Brewing Company"
"160",0.055,30,2017,"Pail Ale","American Pale Ale (APA)",250,16,"Angola"," IN",17.873887,-11.202692,"Chapman's Brewing"
"161",0.057,58,2380,"IPA #11","American IPA",121,16,"Cheboygan"," MI",-84.4744795,45.6469563,"Cheboygan Brewing Company"
"162",0.089,126,2440,"Bay of Bengal Double IPA (2014)","American Double / Imperial IPA",99,12,"Cincinnati"," OH",-84.5120196,39.1031182,"Christian Moerlein Brewing Company"
"163",0.062,65,2014,"Operation Homefront","American IPA",141,12,"Tampa"," FL",-82.4571776,27.950575,"Cigar City Brewing Company"
"164",0.07,60,1726,"Hopped on the High Seas (Hop #529)","American IPA",141,12,"Tampa"," FL",-82.4571776,27.950575,"Cigar City Brewing Company"
"165",0.07,60,1725,"Hopped on the High Seas (Calypso)","American IPA",141,12,"Tampa"," FL",-82.4571776,27.950575,"Cigar City Brewing Company"
"166",0.07,60,1694,"Dry-Hopped On The High Seas Caribbean-Style IPA","American IPA",141,12,"Tampa"," FL",-82.4571776,27.950575,"Cigar City Brewing Company"
"167",0.07,60,1693,"Hopped on the High Seas (Citra)","American IPA",141,12,"Tampa"," FL",-82.4571776,27.950575,"Cigar City Brewing Company"
"168",0.07,60,1692,"Hopped on the High Seas (Ahtanum)","American IPA",141,12,"Tampa"," FL",-82.4571776,27.950575,"Cigar City Brewing Company"
"169",0.075,70,1142,"Humidor Series India Pale Ale","American IPA",141,12,"Tampa"," FL",-82.4571776,27.950575,"Cigar City Brewing Company"
"170",0.075,70,1141,"Jai Alai IPA Aged on White Oak","American IPA",141,12,"Tampa"," FL",-82.4571776,27.950575,"Cigar City Brewing Company"
"171",0.072,75,569,"Tocobaga Red Ale","American Amber / Red Ale",141,12,"Tampa"," FL",-82.4571776,27.950575,"Cigar City Brewing Company"
"172",0.075,70,546,"Jai Alai IPA","American IPA",141,12,"Tampa"," FL",-82.4571776,27.950575,"Cigar City Brewing Company"
"173",0.067,60,1772,"Jacaranada Rye IPA","American IPA",320,16,"Claremont"," CA",-117.7197785,34.0966764,"Claremont Craft Ales"
"174",0.044,13,893,"Wheat the People","American Pale Wheat Ale",418,16,"Portland"," OR",-122.6764816,45.5230622,"Coalition Brewing Company"
"175",0.047,17,1407,"Tybee Island Blonde","American Blonde Ale",415,12,"Savannah"," GA",-81.0998342,32.0835407,"Coastal Empire Beer Company"
"176",0.065,75,2437,"Newport Storm IPA","American IPA",101,12,"Newport"," RI",-71.3128285,41.4901024,"Coastal Extreme Brewing Company"
"177",0.052,24,751,"Hurricane Amber Ale (2004)","American Amber / Red Ale",101,12,"Newport"," RI",-71.3128285,41.4901024,"Coastal Extreme Brewing Company"
"178",0.052,24,120,"Hurricane Amber Ale","American Amber / Red Ale",101,12,"Newport"," RI",-71.3128285,41.4901024,"Coastal Extreme Brewing Company"
"179",0.068,75,970,"Des Moines IPA","American IPA",482,16,"Des Moines"," IA",-93.6091064,41.6005448,"Confluence Brewing Company"
"180",0.056,21,968,"Farmer John's Multi-Grain Ale","American Blonde Ale",482,16,"Des Moines"," IA",-93.6091064,41.6005448,"Confluence Brewing Company"
"181",0.06,46,2538,"Neomexicanus Native","American Pale Ale (APA)",63,12,"Edwards"," CO",-117.92335,34.070214,"Crazy Mountain Brewing Company"
"182",0.052,25,356,"Crazy Mountain Amber Ale","American Amber / Red Ale",63,12,"Edwards"," CO",-117.92335,34.070214,"Crazy Mountain Brewing Company"
"183",0.065,65,2029,"Tropicalia","American IPA",247,12,"Athens"," GA",23.7275388,37.9838096,"Creature Comforts"
"184",0.049,25,2293,"Aviator Raspberry Blonde","American Blonde Ale",169,12,"Garden City"," ID",-73.6342954,40.7267682,"Crooked Fence Brewing Company"
"185",0.06,31,1057,"South Ridge Amber Ale","American Amber / Red Ale",472,16,"Boulder"," CO",-105.2705456,40.0149856,"Crystal Springs Brewing Company"
"186",0.05,15,1809,"The Tradition","American Blonde Ale",227,12,"Washington"," DC",-120.7401386,47.7510741,"DC Brau Brewing Company"
"187",0.092,115,851,"On the Wings of Armageddon","American Double / Imperial IPA",227,12,"Washington"," DC",-120.7401386,47.7510741,"DC Brau Brewing Company"
"188",0.065,80,186,"The Corruption","American IPA",227,12,"Washington"," DC",-120.7401386,47.7510741,"DC Brau Brewing Company"
"189",0.063,37,1746,"Dead Armadillo Amber Ale","American Amber / Red Ale",330,12,"Tulsa"," OK",-95.992775,36.1539816,"Dead Armadillo Craft Brewing"
"190",0.085,100,2166,"Dream Crusher Double IPA","American Double / Imperial IPA",127,12,"Dallas"," TX",-96.7969879,32.7766642,"Deep Ellum Brewing Company"
"191",0.052,23,946,"Dallas Blonde","American Blonde Ale",127,12,"Dallas"," TX",-96.7969879,32.7766642,"Deep Ellum Brewing Company"
"192",0.07,70,943,"Deep Ellum IPA","American IPA",127,12,"Dallas"," TX",-96.7969879,32.7766642,"Deep Ellum Brewing Company"
"193",0.045,44,1886,"Thrasher Session India Pale Ale","American IPA",283,12,"Hays"," KS",-99.3267702,38.8791783,"Defiance Brewing Company"
"194",0.056,46,1159,"Mother Ale","American Blonde Ale",453,12,"Talkeetna"," AK",-150.1066221,62.3209046,"Denali Brewing Company"
"195",0.065,71,947,"Twister Creek India Pale Ale","American IPA",453,12,"Talkeetna"," AK",-150.1066221,62.3209046,"Denali Brewing Company"
"196",0.05,40,1210,"Mirror Pond Pale Ale","American Pale Ale (APA)",454,12,"Bend"," OR",-121.3153096,44.0581728,"Deschutes Brewery"
"197",0.063,76,2025,"Vertex IPA","American IPA",57,12,"Bloomington"," IL",-86.5263857,39.165325,"Destihl Brewery"
"198",0.096,85,1888,"Hoperation Overload","American Double / Imperial IPA",57,12,"Bloomington"," IL",-86.5263857,39.165325,"Destihl Brewery"
"199",0.044,45,2051,"Bravo Four Point","American Pale Ale (APA)",237,12,"Lexington"," VA",-84.5037164,38.0405837,"Devil's Backbone Brewing Company"
"200",0.052,26,1201,"Striped Bass Pale Ale","American Pale Ale (APA)",237,12,"Lexington"," VA",-84.5037164,38.0405837,"Devil's Backbone Brewing Company"
"201",0.054,27,924,"Deadicated Amber","American Amber / Red Ale",491,16,"Belmont"," CA",-86.7940699,36.1328981,"Devil's Canyon Brewery"
"202",0.071,85,730,"California Sunshine Rye IPA","American IPA",491,16,"Belmont"," CA",-86.7940699,36.1328981,"Devil's Canyon Brewery"
"203",0.065,72,1795,"Filthy Hoppin' IPA","American IPA",311,16,"Woodinville"," WA",-122.1634582,47.7542651,"Dirty Bucket Brewing Company"
"204",0.066,100,881,"Hop Abomination","American IPA",496,12,"Aurora"," CO",-88.3200715,41.7605849,"Dry Dock Brewing Company"
"205",0.058,49,871,"Dry Dock Amber Ale","American Amber / Red Ale",496,12,"Aurora"," CO",-88.3200715,41.7605849,"Dry Dock Brewing Company"
"206",0.061,64,1685,"Category 3 IPA","American IPA",340,12,"Boynton Beach"," FL",-80.0905465,26.5317866,"Due South Brewing Company"
"207",0.045,18,457,"Dundee Summer Wheat Beer","American Pale Wheat Ale",538,12,"Rochester"," NY",-77.6109219,43.16103,"Dundee Brewing Company"
"208",0.078,74,1382,"Crank Yanker IPA","American IPA",369,16,"Buena Vista"," CO",-81.5386842,28.3936186,"Eddyline Brewery & Restaurant"
"209",0.078,74,395,"Crank Yanker IPA (2011)","American IPA",369,16,"Buena Vista"," CO",-81.5386842,28.3936186,"Eddyline Brewery & Restaurant"
"210",0.043,60,2292,"Little Sister India Style Session Ale","American IPA",170,12,"White Salmon"," WA",-121.4864619,45.7276194,"Everybody's Brewing"
"211",0.062,80,1504,"Country Boy IPA","American IPA",170,12,"White Salmon"," WA",-121.4864619,45.7276194,"Everybody's Brewing"
"212",0.049,23,2604,"Blonde Czich","American Blonde Ale",26,16,"Mishawaka"," IN",-86.1586156,41.6619927,"Evil Czech Brewery"
"213",0.05,32,1722,"Iron Horse Pale Ale","American Pale Ale (APA)",335,12,"Fargo"," ND",-96.7898034,46.8771863,"Fargo Brewing Company"
"214",0.067,70,1434,"Wood Chipper India Pale Ale","American IPA",335,12,"Fargo"," ND",-96.7898034,46.8771863,"Fargo Brewing Company"
"215",0.063,55,2089,"Trail Head","American Pale Ale (APA)",224,12,"Middleburg Heights"," OH",-81.812912,41.3614401,"Fat Head's Brewery"
"216",0.07,80,2088,"Hop Stalker Fresh Hop IPA","American IPA",224,16,"Middleburg Heights"," OH",-81.812912,41.3614401,"Fat Head's Brewery"
"217",0.07,70,1451,"Moirai India Pale Ale","American IPA",405,16,"Boulder"," CO",-105.2705456,40.0149856,"Fate Brewing Company"
"218",0.075,53,2191,"Loki Red Ale","American Amber / Red Ale",201,16,"Estacada"," OR",-122.3336963,45.2895655,"Fearless Brewing Company"
"219",0.075,53,895,"Loki Red Ale (2013)","American Amber / Red Ale",201,16,"Estacada"," OR",-122.3336963,45.2895655,"Fearless Brewing Company"
"220",0.082,80,1929,"Second Fiddle","American Double / Imperial IPA",172,16,"Shelburne"," VT",-73.227626,44.3806065,"Fiddlehead Brewing Company"
"221",0.05,22,1662,"Wet Hot American Wheat Ale","American Pale Wheat Ale",256,16,"Chicago"," IL",-87.6297982,41.8781136,"Finch's Beer Company"
"222",0.08,72,935,"Fascist Pig Ale","American Amber / Red Ale",256,16,"Chicago"," IL",-87.6297982,41.8781136,"Finch's Beer Company"
"223",0.045,47,2569,"Easy Jack","American IPA",48,12,"Paso Robles"," CA",-120.6545022,35.6368759,"Firestone Walker Brewing Company"
"224",0.075,75,2463,"Union Jack","American IPA",48,12,"Paso Robles"," CA",-120.6545022,35.6368759,"Firestone Walker Brewing Company"
"225",0.047,20,1733,"805","American Blonde Ale",48,12,"Paso Robles"," CA",-120.6545022,35.6368759,"Firestone Walker Brewing Company"
"226",0.05,27,2284,"Hinchtown Hammer Down","American Blonde Ale",16,16,"Indianapolis"," IN",-86.158068,39.768403,"Flat 12 Bierwerks"
"227",0.06,104,1610,"Half Cycle IPA","American IPA",16,16,"Indianapolis"," IN",-86.158068,39.768403,"Flat 12 Bierwerks"
"228",0.071,60,608,"Snake Dog IPA","American IPA",521,12,"Frederick"," MD",-77.4105409,39.4142688,"Flying Dog Brewery"
"229",0.07,70,2566,"Flying Mouse 4","American IPA",50,12,"Troutville"," VA",-79.8747627,37.4181897,"Flying Mouse Brewery"
"230",0.069,65,2110,"1916 Shore Shiver","American IPA",217,12,"Cherry Hill"," NJ",-75.0246312,39.926813,"Forgotten Boardwalk"
"231",0.074,97,318,"Vortex IPA","American IPA",206,16,"Astoria"," OR",-123.8312534,46.1878841,"Fort George Brewery"
"232",0.047,19,2661,"Park","American Pale Wheat Ale",4,12,"San Francisco"," CA",-122.4194155,37.7749295,"Fort Point Beer Company"
"233",0.056,16,2660,"Westfalia","American Amber / Red Ale",4,12,"San Francisco"," CA",-122.4194155,37.7749295,"Fort Point Beer Company"
"234",0.063,42,2658,"Villager","American IPA",4,12,"San Francisco"," CA",-122.4194155,37.7749295,"Fort Point Beer Company"
"235",0.072,65,1565,"Centennial IPA","American IPA",15,12,"Grand Rapids"," MI",-85.6680863,42.9633599,"Founders Brewing Company"
"236",0.047,42,1223,"All Day IPA","American IPA",15,12,"Grand Rapids"," MI",-85.6680863,42.9633599,"Founders Brewing Company"
"237",0.076,73,1874,"El Chingon IPA","American IPA",287,12,"Dallas"," TX",-96.7969879,32.7766642,"Four Corners Brewing Company"
"238",0.052,20,1872,"Local Buzz","American Blonde Ale",287,12,"Dallas"," TX",-96.7969879,32.7766642,"Four Corners Brewing Company"
"239",0.064,90,2610,"The Gadget","American IPA",22,16,"Valparaiso"," IN",-87.0611412,41.4730948,"Four Fathers Brewing "
"240",0.067,47,358,"Hop Knot IPA","American IPA",160,12,"Tempe"," AZ",-111.9400054,33.4255104,"Four Peaks Brewing Company"
"241",0.05,28,2427,"Suncaster Summer Wheat","American Pale Wheat Ale",105,12,"Columbus"," OH",-82.9987942,39.9611755,"Four String Brewing Company"
"242",0.057,36,2425,"Brass Knuckle Pale Ale","American Pale Ale (APA)",105,12,"Columbus"," OH",-82.9987942,39.9611755,"Four String Brewing Company"
"243",0.069,69,1556,"Batch 69 IPA","American IPA",253,12,"Frankenmuth"," MI",-83.7380194,43.331691,"Frankenmuth Brewery"
"244",0.059,70,2521,"Soul Doubt","American IPA",66,12,"San Antonio"," TX",-98.4936282,29.4241219,"Freetail Brewing Company"
"245",0.065,45,875,"Fremont Summer Ale","American Pale Ale (APA)",460,12,"Seattle"," WA",-122.3320708,47.6062095,"Fremont Brewing Company"
"246",0.056,30,858,"Universale Pale Ale","American Pale Ale (APA)",460,12,"Seattle"," WA",-122.3320708,47.6062095,"Fremont Brewing Company"
"247",0.065,80,857,"Interurban IPA","American IPA",460,12,"Seattle"," WA",-122.3320708,47.6062095,"Fremont Brewing Company"
"248",0.07,73,2254,"Salamander Slam","American IPA",180,16,"Waynesville"," NC",-82.9887477,35.4887145,"Frog Level Brewing Company"
"249",0.072,50,2077,"No Wake IPA","American IPA",228,12,"Lake Geneva"," WI",-88.4334301,42.5916836,"Geneva Lake Brewing Company"
"250",0.049,15,2076,"Boathouse Blonde","American Blonde Ale",228,12,"Lake Geneva"," WI",-88.4334301,42.5916836,"Geneva Lake Brewing Company"
"251",0.05,26,2075,"Cedar Point","American Amber / Red Ale",228,12,"Lake Geneva"," WI",-88.4334301,42.5916836,"Geneva Lake Brewing Company"
"252",0.067,70,2426,"Clean Shave IPA","American IPA",106,12,"Pineland"," ME",-93.9743556,31.2479659,"Glabrous Brewing Company"
"253",0.074,74,1777,"2020 IPA","American IPA",240,16,"Los Angeles"," CA",-118.2436849,34.0522342,"Golden Road Brewing"
"254",0.08,70,1698,"Wolf Among Weeds IPA","American IPA",240,16,"Los Angeles"," CA",-118.2436849,34.0522342,"Golden Road Brewing"
"255",0.094,92,1641,"Better Weather IPA","American IPA",240,16,"Los Angeles"," CA",-118.2436849,34.0522342,"Golden Road Brewing"
"256",0.059,60,1490,"Point the Way IPA","American IPA",240,16,"Los Angeles"," CA",-118.2436849,34.0522342,"Golden Road Brewing"
"257",0.068,65,1399,"Heal the Bay IPA","American IPA",240,16,"Los Angeles"," CA",-118.2436849,34.0522342,"Golden Road Brewing"
"258",0.059,60,1296,"Point the Way IPA","American IPA",240,12,"Los Angeles"," CA",-118.2436849,34.0522342,"Golden Road Brewing"
"259",0.08,70,750,"Burning Bush Smoked IPA","American IPA",240,16,"Los Angeles"," CA",-118.2436849,34.0522342,"Golden Road Brewing"
"260",0.08,70,749,"Wolf Among Weeds IPA (2012)","American IPA",240,16,"Los Angeles"," CA",-118.2436849,34.0522342,"Golden Road Brewing"
"261",0.059,60,549,"Point the Way IPA (2012)","American IPA",240,16,"Los Angeles"," CA",-118.2436849,34.0522342,"Golden Road Brewing"
"262",0.07,70,1109,"Descender IPA","American IPA",464,12,"Bend"," OR",-121.3153096,44.0581728,"Good Life Brewing Company"
"263",0.06,18,1108,"Sweet As Pacific Ale","American Pale Wheat Ale",464,12,"Bend"," OR",-121.3153096,44.0581728,"Good Life Brewing Company"
"264",0.056,36,1000,"Good People Pale Ale","American Pale Ale (APA)",478,12,"Birmingham"," AL",-86.80249,33.5206608,"Good People Brewing Company"
"265",0.093,103,312,"Snake Handler Double IPA","American Double / Imperial IPA",478,12,"Birmingham"," AL",-86.80249,33.5206608,"Good People Brewing Company"
"266",0.06,64,309,"Good People IPA","American IPA",478,12,"Birmingham"," AL",-86.80249,33.5206608,"Good People Brewing Company"
"267",0.055,40,2205,"Mountain Rescue Pale Ale","American Pale Ale (APA)",194,12,"Bend"," OR",-121.3153096,44.0581728,"Goodlife Brewing Co."
"268",0.059,55,2198,"Goose Island India Pale Ale","American IPA",196,12,"Chicago"," IL",-87.6297982,41.8781136,"Goose Island Brewery Company"
"269",0.054,30,2457,"312 Urban Pale Ale","American Pale Ale (APA)",88,16,"Chicago"," IL",-87.6297982,41.8781136,"Goose Island Brewing Company"
"270",0.054,30,2202,"312 Urban Pale Ale","American Pale Ale (APA)",88,12,"Chicago"," IL",-87.6297982,41.8781136,"Goose Island Brewing Company"
"271",0.042,18,2201,"312 Urban Wheat Ale","American Pale Wheat Ale",88,16,"Chicago"," IL",-87.6297982,41.8781136,"Goose Island Brewing Company"
"272",0.042,18,1829,"312 Urban Wheat Ale","American Pale Wheat Ale",88,12,"Chicago"," IL",-87.6297982,41.8781136,"Goose Island Brewing Company"
"273",0.042,20,581,"312 Urban Wheat Ale (2012)","American Pale Wheat Ale",88,12,"Chicago"," IL",-87.6297982,41.8781136,"Goose Island Brewing Company"
"274",0.043,21,2129,"Monarch Classic American Wheat","American Pale Wheat Ale",213,12,"Farmers Branch"," TX",-96.8961151,32.9265137,"Grapevine Craft Brewery"
"275",0.055,35,2126,"Lakefire Rye Pale Ale","American Pale Ale (APA)",213,12,"Farmers Branch"," TX",-96.8961151,32.9265137,"Grapevine Craft Brewery"
"276",0.053,22,2303,"Beer Agent Re-Ignition","American Blonde Ale",165,16,"Aurora"," IN",-88.3200715,41.7605849,"Great Crescent Brewery"
"277",0.062,60,1701,"Great Crescent IPA","American IPA",165,16,"Aurora"," IN",-88.3200715,41.7605849,"Great Crescent Brewery"
"278",0.053,22,1699,"Great Crescent Blonde Ale","American Blonde Ale",165,16,"Aurora"," IN",-88.3200715,41.7605849,"Great Crescent Brewery"
"279",0.062,60,436,"Great Crescent IPA (2011)","American IPA",165,16,"Aurora"," IN",-88.3200715,41.7605849,"Great Crescent Brewery"
"280",0.053,22,389,"Great Crescent Blonde Ale (2011)","American Blonde Ale",165,16,"Aurora"," IN",-88.3200715,41.7605849,"Great Crescent Brewery"
"281",0.052,49,1923,"Commotion APA","American Pale Ale (APA)",269,12,"Shreveport"," LA",-93.7501789,32.5251516,"Great Raft Brewing Company"
"282",0.053,48,863,"483 Pale Ale","American Pale Ale (APA)",365,16,"Davenport"," IA",-90.5776367,41.5236437,"Great River Brewery"
"283",0.07,70,540,"Big Cock IPA","American IPA",365,16,"Davenport"," IA",-90.5776367,41.5236437,"Great River Brewery"
"284",0.048,25,517,"40th Annual Bix Street Fest Copper Ale (Current)","American Amber / Red Ale",365,16,"Davenport"," IA",-90.5776367,41.5236437,"Great River Brewery"
"285",0.053,48,190,"483 Pale Ale (2010)","American Pale Ale (APA)",365,16,"Davenport"," IA",-90.5776367,41.5236437,"Great River Brewery"
"286",0.05,30,1106,"Pablo Beach Pale Ale","American Pale Ale (APA)",466,12,"Jacksonville"," FL",-81.655651,30.3321838,"Green Room Brewing"
"287",0.057,44,2314,"Wild Trail Pale Ale","American Pale Ale (APA)",156,12,"Lewisburg"," WV",-76.8844101,40.9645293,"Greenbrier Valley Brewing Company"
"288",0.085,69,2044,"Captain's Daughter","American Double / Imperial IPA",86,12,"Westerly"," RI",-71.8272871,41.3775987,"Grey Sail Brewing Company"
"289",0.06,54,1505,"Flying Jenny Extra Pale Ale","American Pale Ale (APA)",379,12,"Westerly"," RI",-71.8272871,41.3775987,"Grey Sail Brewing of Rhode Island"
"290",0.06,54,693,"Flying Jenny Extra Pale Ale (2012)","American Pale Ale (APA)",379,12,"Westerly"," RI",-71.8272871,41.3775987,"Grey Sail Brewing of Rhode Island"
"291",0.045,6,2375,"Mr. Blue Sky","American Pale Wheat Ale",124,16,"Birmingham"," MI",-86.80249,33.5206608,"Griffin Claw Brewing Company"
"292",0.065,25,2140,"El Rojo","American Amber / Red Ale",124,16,"Birmingham"," MI",-86.80249,33.5206608,"Griffin Claw Brewing Company"
"293",0.05,35,2138,"Grind Line","American Pale Ale (APA)",124,16,"Birmingham"," MI",-86.80249,33.5206608,"Griffin Claw Brewing Company"
"294",0.04,55,2007,"Norm's Gateway IPA","American IPA",124,12,"Birmingham"," MI",-86.80249,33.5206608,"Griffin Claw Brewing Company"
"295",0.069,67,1857,"Supergoose IPA","American IPA",290,12,"Seattle"," WA",-122.3320708,47.6062095,"Hale's Ales"
"296",0.07,40,2026,"Pursuit","American IPA",248,12,"Stamford"," CT",-73.5387341,41.0534302,"Half Full Brewery"
"297",0.052,18,1361,"Half Full Bright Ale","American Blonde Ale",248,12,"Stamford"," CT",-73.5387341,41.0534302,"Half Full Brewery"
"298",0.075,70,1677,"The Great Return","American IPA",343,16,"Richmond"," VA",-77.4360481,37.5407246,"Hardywood Park Craft Brewery"
"299",0.056,55,1270,"Capital Trail Pale Ale","American Pale Ale (APA)",343,12,"Richmond"," VA",-77.4360481,37.5407246,"Hardywood Park Craft Brewery"
"300",0.059,42,1379,"Harpoon IPA","American IPA",234,12,"Boston"," MA",-71.0588801,42.3600825,"Harpoon Brewery"
"301",0.059,42,770,"Harpoon IPA (2012)","American IPA",234,12,"Boston"," MA",-71.0588801,42.3600825,"Harpoon Brewery"
"302",0.048,10,610,"UFO White","American Pale Wheat Ale",234,12,"Boston"," MA",-71.0588801,42.3600825,"Harpoon Brewery"
"303",0.059,42,126,"Harpoon IPA (2010)","American IPA",234,12,"Boston"," MA",-71.0588801,42.3600825,"Harpoon Brewery"
"304",0.088,77,1893,"Hill 88 Double IPA","American Double / Imperial IPA",280,16,"Mill Valley"," CA",-122.5449763,37.9060368,"Headlands Brewing Company"
"305",0.072,45,990,"Loose Cannon","American IPA",479,12,"Halethorpe"," MD",-76.6806441,39.2401735,"Heavy Seas Beer"
"306",0.08,86,1346,"Habitus IPA","American IPA",423,16,"San Diego"," CA",-117.1610838,32.715738,"Hess Brewing Company"
"307",0.07,68,2294,"The Power of Zeus","American Pale Ale (APA)",168,12,"Windsor"," CO",-0.613576,51.4817279,"High Hops Brewery"
"308",0.044,22,824,"Tonganoxie Honey Wheat","American Pale Wheat Ale",500,12,"Leavenworth"," KS",-120.6614765,47.5962326,"High Noon Saloon And Brewery"
"309",0.045,32,1615,"The 12th Can™","American Pale Ale (APA)",362,16,"Seattle"," WA",-122.3320708,47.6062095,"Hilliard's Beer"
"310",0.049,20,724,"Hilliard's Blonde","American Blonde Ale",362,16,"Seattle"," WA",-122.3320708,47.6062095,"Hilliard's Beer"
"311",0.055,60,497,"Hilliard's Amber Ale","American Amber / Red Ale",362,16,"Seattle"," WA",-122.3320708,47.6062095,"Hilliard's Beer"
"312",0.058,45,1833,"Hop Farm IPA","American IPA",297,12,"Pittsburgh"," PA",-79.9958864,40.4406248,"Hop Farm Brewing Company"
"313",0.049,20,2195,"Double D Blonde","American Blonde Ale",198,12,"Springfield"," OR",-89.6501481,39.7817213,"Hop Valley Brewing Company"
"314",0.063,70,1543,"Proxima IPA","American IPA",198,12,"Springfield"," OR",-89.6501481,39.7817213,"Hop Valley Brewing Company"
"315",0.049,20,1390,"Double D Blonde (2013)","American Blonde Ale",198,12,"Springfield"," OR",-89.6501481,39.7817213,"Hop Valley Brewing Company"
"316",0.065,90,1353,"Alphadelic IPA","American IPA",198,12,"Springfield"," OR",-89.6501481,39.7817213,"Hop Valley Brewing Company"
"317",0.065,90,499,"Alphadelic IPA (2011)","American IPA",198,12,"Springfield"," OR",-89.6501481,39.7817213,"Hop Valley Brewing Company"
"318",0.049,20,498,"Double D Blonde (2011)","American Blonde Ale",198,12,"Springfield"," OR",-89.6501481,39.7817213,"Hop Valley Brewing Company"
"319",0.06,50,501,"Pale Dog","American Pale Ale (APA)",395,12,"Austin"," TX",-97.7430608,30.267153,"Hops & Grain Brewery"
"320",0.039,20,2400,"Nonstop Hef Hop","American Pale Wheat Ale",80,16,"Portland"," OR",-122.6764816,45.5230622,"Hopworks Urban Brewery"
"321",0.039,20,2399,"Nonstop Hef Hop","American Pale Wheat Ale",80,16,"Portland"," OR",-122.6764816,45.5230622,"Hopworks Urban Brewery"
"322",0.039,20,2398,"Nonstop Hef Hop","American Pale Wheat Ale",80,16,"Portland"," OR",-122.6764816,45.5230622,"Hopworks Urban Brewery"
"323",0.039,20,2397,"Nonstop Hef Hop","American Pale Wheat Ale",80,16,"Portland"," OR",-122.6764816,45.5230622,"Hopworks Urban Brewery"
"324",0.039,20,2396,"Nonstop Hef Hop","American Pale Wheat Ale",80,16,"Portland"," OR",-122.6764816,45.5230622,"Hopworks Urban Brewery"
"325",0.039,20,2395,"Nonstop Hef Hop","American Pale Wheat Ale",80,16,"Portland"," OR",-122.6764816,45.5230622,"Hopworks Urban Brewery"
"326",0.039,20,2394,"Nonstop Hef Hop","American Pale Wheat Ale",80,16,"Portland"," OR",-122.6764816,45.5230622,"Hopworks Urban Brewery"
"327",0.039,20,2393,"Nonstop Hef Hop","American Pale Wheat Ale",80,16,"Portland"," OR",-122.6764816,45.5230622,"Hopworks Urban Brewery"
"328",0.039,20,2392,"Nonstop Hef Hop","American Pale Wheat Ale",80,16,"Portland"," OR",-122.6764816,45.5230622,"Hopworks Urban Brewery"
"329",0.039,20,2391,"Nonstop Hef Hop","American Pale Wheat Ale",80,16,"Portland"," OR",-122.6764816,45.5230622,"Hopworks Urban Brewery"
"330",0.039,20,2390,"Nonstop Hef Hop","American Pale Wheat Ale",80,16,"Portland"," OR",-122.6764816,45.5230622,"Hopworks Urban Brewery"
"331",0.039,20,2389,"Nonstop Hef Hop","American Pale Wheat Ale",80,16,"Portland"," OR",-122.6764816,45.5230622,"Hopworks Urban Brewery"
"332",0.058,60,2388,"Rise Up Red","American Amber / Red Ale",80,16,"Portland"," OR",-122.6764816,45.5230622,"Hopworks Urban Brewery"
"333",0.066,75,2199,"Hopworks IPA","American IPA",80,16,"Portland"," OR",-122.6764816,45.5230622,"Hopworks Urban Brewery"
"334",0.058,60,1085,"Rise-Up Red (2014)","American Amber / Red Ale",80,16,"Portland"," OR",-122.6764816,45.5230622,"Hopworks Urban Brewery"
"335",0.066,75,653,"Hopworks IPA (2012)","American IPA",80,16,"Portland"," OR",-122.6764816,45.5230622,"Hopworks Urban Brewery"
"336",0.068,90,1903,"Let It Ride IPA","American IPA",277,12,"Minneapolis"," MN",-93.2650108,44.977753,"Indeed Brewing Company"
"337",0.046,27,1115,"Shenanigans Summer Ale","American Pale Wheat Ale",277,12,"Minneapolis"," MN",-93.2650108,44.977753,"Indeed Brewing Company"
"338",0.054,45,728,"Day Tripper Pale Ale","American Pale Ale (APA)",277,12,"Minneapolis"," MN",-93.2650108,44.977753,"Indeed Brewing Company"
"339",0.048,32,2350,"Oklahoma Suks","American Amber / Red Ale",140,12,"Austin"," TX",-97.7430608,30.267153,"Independence Brewing Company"
"340",0.055,42,2301,"Power & Light","American Pale Ale (APA)",140,12,"Austin"," TX",-97.7430608,30.267153,"Independence Brewing Company"
"341",0.058,58,2609,"Tribute","American Pale Ale (APA)",23,12,"Indianapolis"," IN",-86.158068,39.768403,"Indiana City Brewing"
"342",0.07,75,2038,"Infamous IPA","American IPA",242,12,"Austin"," TX",-97.7430608,30.267153,"Infamous Brewing Company"
"343",0.045,20,559,"Jon Boat Coastal Ale","American Blonde Ale",527,12,"Jacksonville"," FL",-81.655651,30.3321838,"Intuition Ale Works"
"344",0.068,55,558,"I-10 IPA","American IPA",527,12,"Jacksonville"," FL",-81.655651,30.3321838,"Intuition Ale Works"
"345",0.053,28,553,"People's Pale Ale","American Pale Ale (APA)",527,12,"Jacksonville"," FL",-81.655651,30.3321838,"Intuition Ale Works"
"346",0.055,37,1793,"Thunder Ann","American Pale Ale (APA)",312,12,"Nashville"," TN",-86.7816016,36.1626638,"Jackalope Brewing Company"
"347",0.05,50,469,"Fox Tail Gluten Free Ale","American Pale Ale (APA)",233,12,"Henderson"," NV",-114.9817213,36.0395247,"Joseph James Brewing Company"
"348",0.093,90,468,"Hop Box Imperial IPA","American Double / Imperial IPA",233,12,"Henderson"," NV",-114.9817213,36.0395247,"Joseph James Brewing Company"
"349",0.055,40,1557,"Weekend Warrior Pale Ale","American Pale Ale (APA)",125,12,"Houston"," TX",-95.3698028,29.7604267,"Karbach Brewing Company"
"350",0.095,85,666,"Rodeo Clown Double IPA","American Double / Imperial IPA",125,12,"Houston"," TX",-95.3698028,29.7604267,"Karbach Brewing Company"
"351",0.066,70,463,"Hopadillo India Pale Ale","American IPA",125,12,"Houston"," TX",-95.3698028,29.7604267,"Karbach Brewing Company"
"352",0.06,64,1572,"KelSo India Pale Ale","American IPA",342,12,"Brooklyn"," NY",-73.9441579,40.6781784,"KelSo Beer Company"
"353",0.05,15,1187,"Peninsula Brewers Reserve (PBR)","American Blonde Ale",458,12,"Soldotna"," AK",-151.0583332,60.4877778,"Kenai River Brewing Company"
"354",0.065,65,759,"Double Haul IPA (2009)","American IPA",510,16,"Missoula"," MT",-113.996586,46.8787176,"Kettle House Brewing Company"
"355",0.065,65,758,"Double Haul IPA (2006)","American IPA",510,16,"Missoula"," MT",-113.996586,46.8787176,"Kettle House Brewing Company"
"356",0.055,50,87,"Eddy Out Pale Ale","American Pale Ale (APA)",510,16,"Missoula"," MT",-113.996586,46.8787176,"Kettle House Brewing Company"
"357",0.065,65,86,"Double Haul IPA","American IPA",510,16,"Missoula"," MT",-113.996586,46.8787176,"Kettle House Brewing Company"
"358",0.06,70,1667,"King Street IPA","American IPA",102,12,"Anchorage"," AK",-149.9002778,61.2180556,"King Street Brewing Company"
"359",0.063,65,2460,"India Pale Ale","American IPA",87,16,"Kirkwood"," MO",-120.0722442,38.7023082,"Kirkwood Station Brewing Company"
"360",0.048,11,2459,"Blackberry Wheat","American Pale Wheat Ale",87,16,"Kirkwood"," MO",-120.0722442,38.7023082,"Kirkwood Station Brewing Company"
"361",0.072,100,664,"Elevated IPA","American IPA",332,16,"Albuquerque"," NM",-106.6055534,35.0853336,"La Cumbre Brewing Company"
"362",0.064,66,1396,"Laughing Dog IPA","American IPA",218,12,"Ponderay"," ID",-116.5338037,48.3054806,"Laughing Dog Brewing Company"
"363",0.064,95,1675,"Madra Allta","American IPA",345,12,"Erie"," PA",-80.085059,42.1292241,"Lavery Brewing Company"
"364",0.056,70,1249,"Duluchan India Pale Ale","American IPA",345,12,"Erie"," PA",-80.085059,42.1292241,"Lavery Brewing Company"
"365",0.057,42,1688,"American Hero","American Amber / Red Ale",298,12,"York"," PA",-76.727745,39.9625984,"Liquid Hero Brewery"
"366",0.065,75,1686,"Irregardless IPA","American IPA",298,12,"York"," PA",-76.727745,39.9625984,"Liquid Hero Brewery"
"367",0.057,40,2434,"Peach Pale Ale","American Pale Ale (APA)",104,12,"Lone Tree"," CO",-104.8970678,39.536482,"Lone Tree Brewing Company"
"368",0.057,47,2329,"Peacemaker Pale Ale","American Pale Ale (APA)",149,12,"Raleigh"," NC",-78.6381787,35.7795897,"Lonerider Brewing Company"
"369",0.046,30,1924,"Long Trail Ale","American Amber / Red Ale",268,12,"Bridgewater Corners"," VT",-72.6559307,43.5884026,"Long Trail Brewing Company"
"370",0.062,65,1309,"Face Plant IPA","American IPA",430,12,"Ashburn"," VA",-77.4874416,39.0437567,"Lost Rhino Brewing Company"
"371",0.051,32,961,"Mac's Scottish Style Amber Ale (2000)","American Amber / Red Ale",485,12,"Portland"," OR",-122.6764816,45.5230622,"MacTarnahans Brewing Company"
"372",0.043,18,2209,"Sol Drifter","American Blonde Ale",91,12,"Cincinnati"," OH",-84.5120196,39.1031182,"Madtree Brewing Company"
"373",0.05,40,1815,"SPRYE","American Pale Ale (APA)",91,12,"Cincinnati"," OH",-84.5120196,39.1031182,"Madtree Brewing Company"
"374",0.069,70,1126,"Psychopathy","American IPA",91,12,"Cincinnati"," OH",-84.5120196,39.1031182,"Madtree Brewing Company"
"375",0.06,30,1124,"Happy Amber","American Amber / Red Ale",91,12,"Cincinnati"," OH",-84.5120196,39.1031182,"Madtree Brewing Company"
"376",0.05,18,1484,"Summer Paradise","American Pale Wheat Ale",356,12,"Philadelphia"," PA",-75.1652215,39.9525839,"Manayunk Brewing Company"
"377",0.085,85,1334,"Dreamin' Double IPA","American Double / Imperial IPA",356,12,"Philadelphia"," PA",-75.1652215,39.9525839,"Manayunk Brewing Company"
"378",0.099,93,1674,"Chaotic Double IPA","American Double / Imperial IPA",346,12,"Santee"," CA",-116.9739167,32.8383828,"Manzanita Brewing Company"
"379",0.08,88,1673,"Manzanita IPA","American IPA",346,12,"Santee"," CA",-116.9739167,32.8383828,"Manzanita Brewing Company"
"380",0.06,25,1672,"Riverwalk Blonde Ale","American Blonde Ale",346,12,"Santee"," CA",-116.9739167,32.8383828,"Manzanita Brewing Company"
"381",0.066,44,1670,"Manzanita Pale Ale","American Pale Ale (APA)",346,12,"Santee"," CA",-116.9739167,32.8383828,"Manzanita Brewing Company"
"382",0.05,35,2197,"Rubberneck Red","American Amber / Red Ale",161,16,"Fort Worth"," TX",-97.3307658,32.7554883,"Martin House Brewing Company"
"383",0.065,60,1831,"Our Legacy IPA","American IPA",299,12,"Utica"," NY",-75.232664,43.100903,"Matt Brewing Company"
"384",0.065,60,1135,"Our Legacy IPA","American IPA",299,16,"Utica"," NY",-75.232664,43.100903,"Matt Brewing Company"
"385",0.05,12,773,"Blueberry Blonde Ale","American Blonde Ale",299,12,"Utica"," NY",-75.232664,43.100903,"Matt Brewing Company"
"386",0.06,24,690,"Sobrehumano Palena'ole","American Amber / Red Ale",375,12,"Lahaina"," HI",-156.6825,20.8783333,"Maui Brewing Company"
"387",0.068,68,435,"Flyin' HI.P.Hay","American IPA",375,12,"Lahaina"," HI",-156.6825,20.8783333,"Maui Brewing Company"
"388",0.055,15,313,"Mana Wheat","American Pale Wheat Ale",375,12,"Lahaina"," HI",-156.6825,20.8783333,"Maui Brewing Company"
"389",0.062,65,31,"Big Swell IPA","American IPA",375,12,"Lahaina"," HI",-156.6825,20.8783333,"Maui Brewing Company"
"390",0.037,53,1047,"Back in the Saddle Rye Pale Ale","American Pale Ale (APA)",448,12,"Half Moon Bay"," CA",-122.4285862,37.4635519,"Mavericks Beer Company"
"391",0.072,75,2186,"Tsunami IPA","American IPA",203,19.2,"Hilo"," HI",-155.0884869,19.7070942,"Mehana Brewing Co."
"392",0.072,75,2185,"Tsunami IPA","American IPA",203,12,"Hilo"," HI",-155.0884869,19.7070942,"Mehana Brewing Co."
"393",0.042,22,2184,"Humpback Blonde Ale","American Blonde Ale",203,12,"Hilo"," HI",-155.0884869,19.7070942,"Mehana Brewing Co."
"394",0.052,23,2177,"Volcano Red Ale","American Amber / Red Ale",203,12,"Hilo"," HI",-155.0884869,19.7070942,"Mehana Brewing Co."
"395",0.054,42,2176,"Mauna Kea Pale Ale","American Pale Ale (APA)",203,12,"Hilo"," HI",-155.0884869,19.7070942,"Mehana Brewing Co."
"396",0.071,62,1506,"Miami Vice IPA","American IPA",393,12,"Miami"," FL",-80.1917902,25.7616798,"Miami Brewing Company"
"397",0.053,16,1325,"Big Rod Coconut Ale","American Blonde Ale",393,12,"Miami"," FL",-80.1917902,25.7616798,"Miami Brewing Company"
"398",0.063,61,2093,"Pleasure Town","American IPA",223,12,"Anchorage"," AK",-149.9002778,61.2180556,"Midnight Sun Brewing Company"
"399",0.063,61,1814,"Pleasure Town IPA","American IPA",223,12,"Anchorage"," AK",-149.9002778,61.2180556,"Midnight Sun Brewing Company"
"400",0.057,70,434,"Sockeye Red IPA","American IPA",223,12,"Anchorage"," AK",-149.9002778,61.2180556,"Midnight Sun Brewing Company"
"401",0.08,100,2668,"Habitus (2014)","American Double / Imperial IPA",3,16,"San Diego"," CA",-117.1610838,32.715738,"Mike Hess Brewing Company"
"402",0.075,85,2667,"Solis","American IPA",3,16,"San Diego"," CA",-117.1610838,32.715738,"Mike Hess Brewing Company"
"403",0.08,100,2664,"Habitus","American Double / Imperial IPA",3,16,"San Diego"," CA",-117.1610838,32.715738,"Mike Hess Brewing Company"
"404",0.087,80,1884,"Hop Freak","American Double / Imperial IPA",284,16,"Milwaukee"," WI",-87.9064736,43.0389025,"Milwaukee Brewing Company"
"405",0.051,24,1272,"Louie's Demise Amber Ale","American Amber / Red Ale",284,16,"Milwaukee"," WI",-87.9064736,43.0389025,"Milwaukee Brewing Company"
"406",0.075,51,1080,"Hop Happy","American IPA",284,16,"Milwaukee"," WI",-87.9064736,43.0389025,"Milwaukee Brewing Company"
"407",0.051,24,171,"Louie’s Demise Immort-Ale (2010)","American Amber / Red Ale",284,16,"Milwaukee"," WI",-87.9064736,43.0389025,"Milwaukee Brewing Company"
"408",0.068,66,2441,"Mission IPA","American IPA",98,32,"San Diego"," CA",-117.1610838,32.715738,"Mission Brewery"
"409",0.048,44,1460,"El Conquistador Extra Pale Ale","American Pale Ale (APA)",98,32,"San Diego"," CA",-117.1610838,32.715738,"Mission Brewery"
"410",0.092,75,1459,"Shipwrecked Double IPA","American Double / Imperial IPA",98,32,"San Diego"," CA",-117.1610838,32.715738,"Mission Brewery"
"411",0.075,85,2159,"City of the Sun","American IPA",209,16,"San Diego"," CA",-117.1610838,32.715738,"Modern Times Beer"
"412",0.068,75,2157,"Booming Rollers","American IPA",209,16,"San Diego"," CA",-117.1610838,32.715738,"Modern Times Beer"
"413",0.052,50,2156,"Oneida","American Pale Ale (APA)",209,16,"San Diego"," CA",-117.1610838,32.715738,"Modern Times Beer"
"414",0.067,75,2154,"Aurora ","American Amber / Red Ale",209,16,"San Diego"," CA",-117.1610838,32.715738,"Modern Times Beer"
"415",0.047,46,1494,"Fortunate Islands","American Pale Wheat Ale",209,16,"San Diego"," CA",-117.1610838,32.715738,"Modern Times Beer"
"416",0.065,115,1492,"Blazing World","American Amber / Red Ale",209,16,"San Diego"," CA",-117.1610838,32.715738,"Modern Times Beer"
"417",0.056,28,1907,"Montauk Summer Ale","American Blonde Ale",276,12,"Montauk"," NY",-71.9545146,41.0359353,"Montauk Brewing Company"
"418",0.047,14,1052,"Honey Wheat","American Pale Wheat Ale",326,12,"Saint Louis"," MO",-90.1994042,38.6270025,"Morgan Street Brewery"
"419",0.052,21,2237,"Towhead","American Blonde Ale",188,12,"Springfield"," MO",-89.6501481,39.7817213,"Mother's Brewing"
"420",0.07,70,2208,"Lil' Helper","American IPA",188,12,"Springfield"," MO",-89.6501481,39.7817213,"Mother's Brewing"
"421",0.053,10,421,"Mustang Golden Ale","American Blonde Ale",366,12,"Mustang"," OK",-97.7244867,35.384226,"Mustang Brewing Company"
"422",0.053,14,420,"Washita Wheat","American Pale Wheat Ale",366,12,"Mustang"," OK",-97.7244867,35.384226,"Mustang Brewing Company"
"423",0.042,24,1093,"Narragansett Summer Ale","American Pale Wheat Ale",143,12,"Providence"," RI",-71.4128343,41.8239891,"Narragansett Brewing Company"
"424",0.042,24,403,"Narragansett Summer Ale","American Pale Wheat Ale",143,16,"Providence"," RI",-71.4128343,41.8239891,"Narragansett Brewing Company"
"425",0.085,86,1265,"Old Grogham Imperial India Pale Ale","American Double / Imperial IPA",387,16,"Portland"," OR",-122.6764816,45.5230622,"Natian Brewery"
"426",0.085,86,747,"Old Grogham Imperial India Pale Ale (2012)","American Double / Imperial IPA",387,16,"Portland"," OR",-122.6764816,45.5230622,"Natian Brewery"
"427",0.065,65,1148,"Nebraska India Pale Ale","American IPA",337,12,"Papillion"," NE",-96.0422378,41.1544432,"Nebraska Brewing Company"
"428",0.057,29,1145,"Cardinal Pale Ale","American Pale Ale (APA)",337,12,"Papillion"," NE",-96.0422378,41.1544432,"Nebraska Brewing Company"
"429",0.045,40,2475,"Slow Ride","American IPA",82,12,"Fort Collins"," CO",-105.084423,40.5852602,"New Belgium Brewing Company"
"430",0.065,70,2230,"Ranger IPA","American IPA",82,12,"Fort Collins"," CO",-105.084423,40.5852602,"New Belgium Brewing Company"
"431",0.052,18,1586,"Fat Tire Amber Ale","American Amber / Red Ale",82,12,"Fort Collins"," CO",-105.084423,40.5852602,"New Belgium Brewing Company"
"432",0.052,18,748,"Fat Tire Amber Ale (2011)","American Amber / Red Ale",82,12,"Fort Collins"," CO",-105.084423,40.5852602,"New Belgium Brewing Company"
"433",0.065,70,564,"Ranger IPA","American IPA",82,16,"Fort Collins"," CO",-105.084423,40.5852602,"New Belgium Brewing Company"
"434",0.052,18,563,"Fat Tire Amber Ale","American Amber / Red Ale",82,16,"Fort Collins"," CO",-105.084423,40.5852602,"New Belgium Brewing Company"
"435",0.065,70,115,"Ranger IPA (Current)","American IPA",82,12,"Fort Collins"," CO",-105.084423,40.5852602,"New Belgium Brewing Company"
"436",0.052,18,71,"Fat Tire Amber Ale (2008)","American Amber / Red Ale",82,12,"Fort Collins"," CO",-105.084423,40.5852602,"New Belgium Brewing Company"
"437",0.088,85,320,"Gandhi-Bot Double IPA (12 oz.)","American Double / Imperial IPA",410,12,"Woodbridge"," CT",-77.2497049,38.6581722,"New England Brewing Company"
"438",0.088,85,42,"Gandhi-Bot Double IPA (16 oz.) (2010)","American Double / Imperial IPA",410,16,"Woodbridge"," CT",-77.2497049,38.6581722,"New England Brewing Company"
"439",0.056,30,2042,"Kadigan","American Blonde Ale",241,12,"College Station"," TX",-96.3344068,30.627977,"New Republic Brewing Company"
"440",0.052,50,2041,"Dammit Jim!","American Amber / Red Ale",241,12,"College Station"," TX",-96.3344068,30.627977,"New Republic Brewing Company"
"441",0.051,31,1622,"Jam Session","American Pale Ale (APA)",359,16,"Charlotte"," NC",-80.8431267,35.2270869,"NoDa Brewing Company"
"442",0.072,80,1621,"Hop Drop 'N Roll IPA","American IPA",359,16,"Charlotte"," NC",-80.8431267,35.2270869,"NoDa Brewing Company"
"443",0.045,50,2692,"Get Together","American IPA",0,16,"Minneapolis"," MN",-93.2650108,44.977753,"NorthGate Brewing "
"444",0.063,42,1226,"Three Skulls Ale Pale Ale","American Pale Ale (APA)",450,16,"Pacific"," WA",-122.2501201,47.2645452,"Northwest Brewing Company"
"445",0.061,66,1258,"5 Day IPA","American IPA",442,12,"O'Fallon"," MO",-90.6998477,38.8106075,"O'Fallon Brewery"
"446",0.067,70,2331,"Watershed IPA","American IPA",150,12,"Eugene"," OR",-123.0867536,44.0520691,"Oakshire Brewing"
"447",0.054,24,1669,"Oakshire Amber Ale","American Amber / Red Ale",150,12,"Eugene"," OR",-123.0867536,44.0520691,"Oakshire Brewing"
"448",0.067,70,999,"Watershed IPA (2013)","American IPA",150,12,"Eugene"," OR",-123.0867536,44.0520691,"Oakshire Brewing"
"449",0.048,35,2069,"Slow Ride","American Pale Ale (APA)",184,12,"Austin"," TX",-97.7430608,30.267153,"Oasis Texas Brewing Company"
"450",0.05,45,602,"Boji Blue Pale Ale","American Pale Ale (APA)",471,16,"Spirit Lake"," IA",-122.1337072,46.2743029,"Okoboji Brewing Company"
"451",0.049,35,2302,"Pinner Throwback IPA","American IPA",166,12,"Longmont"," CO",-105.1019275,40.1672068,"Oskar Blues Brewery"
"452",0.065,65,1444,"Dale's Pale Ale","American Pale Ale (APA)",166,12,"Longmont"," CO",-105.1019275,40.1672068,"Oskar Blues Brewery"
"453",0.065,65,1252,"Dale's Pale Ale","American Pale Ale (APA)",166,12,"Longmont"," CO",-105.1019275,40.1672068,"Oskar Blues Brewery"
"454",0.065,65,955,"Dale's Pale Ale","American Pale Ale (APA)",166,19.2,"Longmont"," CO",-105.1019275,40.1672068,"Oskar Blues Brewery"
"455",0.065,65,892,"Dale's Pale Ale (10 Year Anniversary)","American Pale Ale (APA)",166,12,"Longmont"," CO",-105.1019275,40.1672068,"Oskar Blues Brewery"
"456",0.065,65,828,"Dale's Pale Ale (2012)","American Pale Ale (APA)",166,12,"Longmont"," CO",-105.1019275,40.1672068,"Oskar Blues Brewery"
"457",0.087,85,806,"Gordon Imperial Red (2010)","American Double / Imperial IPA",166,12,"Longmont"," CO",-105.1019275,40.1672068,"Oskar Blues Brewery"
"458",0.065,65,755,"Dale's Pale Ale (2011)","American Pale Ale (APA)",166,12,"Longmont"," CO",-105.1019275,40.1672068,"Oskar Blues Brewery"
"459",0.065,65,754,"Dale's Pale Ale (2010)","American Pale Ale (APA)",166,12,"Longmont"," CO",-105.1019275,40.1672068,"Oskar Blues Brewery"
"460",0.087,85,726,"G'KNIGHT (16 oz.)","American Double / Imperial IPA",166,16,"Longmont"," CO",-105.1019275,40.1672068,"Oskar Blues Brewery"
"461",0.09,60,391,"One Hit Wonder","American Double / Imperial IPA",166,12,"Longmont"," CO",-105.1019275,40.1672068,"Oskar Blues Brewery"
"462",0.087,85,388,"G'KNIGHT (12 oz.)","American Double / Imperial IPA",166,12,"Longmont"," CO",-105.1019275,40.1672068,"Oskar Blues Brewery"
"463",0.099,100,6,"GUBNA Imperial IPA","American Double / Imperial IPA",166,12,"Longmont"," CO",-105.1019275,40.1672068,"Oskar Blues Brewery"
"464",0.087,85,4,"Gordon Ale (2009)","American Double / Imperial IPA",166,12,"Longmont"," CO",-105.1019275,40.1672068,"Oskar Blues Brewery"
"465",0.065,65,1,"Dale's Pale Ale","American Pale Ale (APA)",166,12,"Longmont"," CO",-105.1019275,40.1672068,"Oskar Blues Brewery"
"466",0.092,85,805,"Gordon (2005)","American Double / Imperial IPA",503,12,"Lyons"," CO",-87.8181128,41.8133651,"Oskar Blues Brewery"
"467",0.065,65,745,"Dale's Pale Ale (2008)","American Pale Ale (APA)",503,12,"Lyons"," CO",-87.8181128,41.8133651,"Oskar Blues Brewery"
"468",0.065,65,744,"Dale's Pale Ale (2006)","American Pale Ale (APA)",503,12,"Lyons"," CO",-87.8181128,41.8133651,"Oskar Blues Brewery"
"469",0.065,65,743,"Dale's Pale Ale (2004)","American Pale Ale (APA)",503,12,"Lyons"," CO",-87.8181128,41.8133651,"Oskar Blues Brewery"
"470",0.065,65,742,"Dale's Pale Ale (2003)","American Pale Ale (APA)",503,12,"Lyons"," CO",-87.8181128,41.8133651,"Oskar Blues Brewery"
"471",0.065,65,741,"Dale's Pale Ale (2002)","American Pale Ale (APA)",503,12,"Lyons"," CO",-87.8181128,41.8133651,"Oskar Blues Brewery"
"472",0.087,60,733,"Gordon Beer (2006)","American Double / Imperial IPA",503,12,"Lyons"," CO",-87.8181128,41.8133651,"Oskar Blues Brewery"
"473",0.087,85,1533,"G'KNIGHT","American Double / Imperial IPA",389,12,"Brevard"," NC",-82.7342919,35.2334472,"Oskar Blues Brewery (North Carol..."
"474",0.08,85,1328,"Deviant Dale's IPA","American Double / Imperial IPA",389,16,"Brevard"," NC",-82.7342919,35.2334472,"Oskar Blues Brewery (North Carol..."
"475",0.065,65,1166,"Dale's Pale Ale","American Pale Ale (APA)",389,19.2,"Brevard"," NC",-82.7342919,35.2334472,"Oskar Blues Brewery (North Carol..."
"476",0.065,65,1065,"Dale's Pale Ale","American Pale Ale (APA)",389,12,"Brevard"," NC",-82.7342919,35.2334472,"Oskar Blues Brewery (North Carol..."
"477",0.055,55,1946,"Overgrown American Pale Ale","American Pale Ale (APA)",261,12,"Waterbury"," VT",-73.0514965,41.5581525,"Otter Creek Brewing"
"478",0.04,39,1961,"Ozark American Pale Ale","American Pale Ale (APA)",259,12,"Rogers"," AR",-73.5714286,45.5027658,"Ozark Beer Company"
"479",0.053,48,697,"Stimulator Pale Ale","American Pale Ale (APA)",441,16,"Fort Collins"," CO",-105.084423,40.5852602,"Pateros Creek Brewing Company"
"480",0.042,35,1805,"Rodeo Rye Pale Ale","American Pale Ale (APA)",307,12,"Garden City"," ID",-73.6342954,40.7267682,"Payette Brewing Company"
"481",0.062,65,1048,"Outlaw IPA","American IPA",307,12,"Garden City"," ID",-73.6342954,40.7267682,"Payette Brewing Company"
"482",0.048,35,890,"Payette Pale Ale","American Pale Ale (APA)",307,12,"Garden City"," ID",-73.6342954,40.7267682,"Payette Brewing Company"
"483",0.05,61,1930,"Summer Session Ale","American Pale Wheat Ale",266,12,"Portland"," ME",-122.6764816,45.5230622,"Peak Organic Brewing Company"
"484",0.065,77,2175,"Mound Builder IPA","American IPA",205,12,"Lafayette"," IN",-86.8752869,40.4167022,"People's Brewing Company"
"485",0.062,62,2168,"Amazon Princess IPA","American IPA",205,12,"Lafayette"," IN",-86.8752869,40.4167022,"People's Brewing Company"
"486",0.048,15,2632,"Gold","American Blonde Ale",13,12,"Comstock Park"," MI",-85.6700332,43.0386368,"Perrin Brewing Company"
"487",0.065,65,2630,"98 Problems (Cuz A Hop Ain't One)","American IPA",13,12,"Comstock Park"," MI",-85.6700332,43.0386368,"Perrin Brewing Company"
"488",0.05,40,2629,"Veteran’s Pale Ale (VPA)","American Pale Ale (APA)",13,12,"Comstock Park"," MI",-85.6700332,43.0386368,"Perrin Brewing Company"
"489",0.05,35,2628,"Grapefruit IPA","American IPA",13,12,"Comstock Park"," MI",-85.6700332,43.0386368,"Perrin Brewing Company"
"490",0.059,25,1404,"North 45 Amber Ale","American Amber / Red Ale",11,16,"Petoskey"," MI",-84.9553296,45.3733428,"Petoskey Brewing"
"491",0.067,74,1402,"Mind's Eye PA","American IPA",11,16,"Petoskey"," MI",-84.9553296,45.3733428,"Petoskey Brewing"
"492",0.061,60,2312,"Camelback","American IPA",157,12,"Phoenix"," AZ",-112.0740373,33.4483771,"Phoenix Ale Brewery"
"493",0.07,75,1384,"Elephant Rock IPA","American IPA",355,12,"Monument"," CO",-104.872758,39.0916586,"Pikes Peak Brewing Company"
"494",0.045,18,1335,"Float Trip Ale","American Blonde Ale",314,16,"Bucryus"," MO",-82.9754649,40.8083909,"Piney River Brewing Company"
"495",0.055,20,521,"McKinney Eddy Amber Ale","American Amber / Red Ale",314,16,"Bucryus"," MO",-82.9754649,40.8083909,"Piney River Brewing Company"
"496",0.07,70,479,"Missouri Mule India Pale Ale","American IPA",314,16,"Bucryus"," MO",-82.9754649,40.8083909,"Piney River Brewing Company"
"497",0.069,51,1760,"GreyBeard™ IPA","American IPA",324,12,"Black Mountain"," NC",-82.3212302,35.6178951,"Pisgah Brewing Company"
"498",0.057,31,1759,"Pisgah Pale Ale","American Pale Ale (APA)",324,12,"Black Mountain"," NC",-82.3212302,35.6178951,"Pisgah Brewing Company"
"499",0.054,45,2553,"Mazzie","American Pale Ale (APA)",55,12,"Lemont"," IL",-88.0017261,41.673642,"Pollyanna Brewing Company"
"500",0.059,14,2360,"Morning Wood Wheat (Current)","American Pale Wheat Ale",135,12,"Dillon"," CO",-106.0433518,39.6302643,"Pug Ryan's Brewery"
"501",0.057,68,711,"Over the Rail Pale Ale","American Pale Ale (APA)",135,12,"Dillon"," CO",-106.0433518,39.6302643,"Pug Ryan's Brewery"
"502",0.059,14,130,"Morning Wood Wheat (Current)","American Pale Wheat Ale",135,12,"Dillon"," CO",-106.0433518,39.6302643,"Pug Ryan's Brewery"
"503",0.058,60,2229,"Pride of Texas Pale Ale","American Pale Ale (APA)",176,12,"Fort Worth"," TX",-97.3307658,32.7554883,"Rahr & Sons Brewing Company"
"504",0.051,21,1718,"Firemans #4 Blonde Ale (2013)","American Blonde Ale",128,12,"Blanco"," TX",-98.4214095,30.0979862,"Real Ale Brewing Company"
"505",0.06,50,1086,"Four Squared (2015)","American Blonde Ale",128,12,"Blanco"," TX",-98.4214095,30.0979862,"Real Ale Brewing Company"
"506",0.051,21,830,"Firemans #4 Blonde Ale (2015)","American Blonde Ale",128,12,"Blanco"," TX",-98.4214095,30.0979862,"Real Ale Brewing Company"
"507",0.062,55,938,"Gangway IPA","American IPA",475,12,"Marietta"," GA",-84.5499327,33.952602,"Red Hare Brewing Company"
"508",0.051,17,2516,"Farmer's Daughter Blonde","American Blonde Ale",68,16,"Mt. Airy"," MD",-80.6072858,36.4993007,"Red Shedman Farm Brewery and Hop..."
"509",0.055,45,2515,"Pump House IPA","American IPA",68,16,"Mt. Airy"," MD",-80.6072858,36.4993007,"Red Shedman Farm Brewery and Hop..."
"510",0.065,44,945,"Long Hammer IPA","American IPA",487,16,"Woodinville"," WA",-122.1634582,47.7542651,"Redhook Brewery"
"511",0.065,44,583,"Long Hammer IPA","American IPA",487,12,"Woodinville"," WA",-122.1634582,47.7542651,"Redhook Brewery"
"512",0.058,27,339,"Copper Hook (2011)","American Amber / Red Ale",487,12,"Woodinville"," WA",-122.1634582,47.7542651,"Redhook Brewery"
"513",0.05,40,2414,"Consilium","American Pale Ale (APA)",110,12,"Denver"," CO",-104.990251,39.7392358,"Renegade Brewing Company"
"514",0.07,100,1176,"Redacted Rye IPA","American IPA",110,16,"Denver"," CO",-104.990251,39.7392358,"Renegade Brewing Company"
"515",0.099,100,1006,"Elevation Triple India Pale Ale","American Double / Imperial IPA",110,12,"Denver"," CO",-104.990251,39.7392358,"Renegade Brewing Company"
"516",0.05,25,1005,"5:00 O'Clock Afternoon Ale","American Blonde Ale",110,16,"Denver"," CO",-104.990251,39.7392358,"Renegade Brewing Company"
"517",0.07,100,636,"Ryeteous Rye IPA (2012)","American IPA",110,16,"Denver"," CO",-104.990251,39.7392358,"Renegade Brewing Company"
"518",0.055,40,2576,"Fist City","American Pale Ale (APA)",44,12,"Chicago"," IL",-87.6297982,41.8781136,"Revolution Brewing Company"
"519",0.065,70,415,"Anti-Hero IPA","American IPA",44,12,"Chicago"," IL",-87.6297982,41.8781136,"Revolution Brewing Company"
"520",0.057,42,2452,"Hustle","American Amber / Red Ale",93,12,"Cincinnati"," OH",-84.5120196,39.1031182,"Rhinegeist Brewery"
"521",0.055,42,2451,"Pure Fury","American Pale Ale (APA)",93,12,"Cincinnati"," OH",-84.5120196,39.1031182,"Rhinegeist Brewery"
"522",0.06,60,2132,"Dad","American Amber / Red Ale",93,12,"Cincinnati"," OH",-84.5120196,39.1031182,"Rhinegeist Brewery"
"523",0.043,45,1935,"Zen","American Pale Ale (APA)",93,12,"Cincinnati"," OH",-84.5120196,39.1031182,"Rhinegeist Brewery"
"524",0.072,75,1852,"Truth","American IPA",93,12,"Cincinnati"," OH",-84.5120196,39.1031182,"Rhinegeist Brewery"
"525",0.048,25,1851,"Cougar","American Blonde Ale",93,12,"Cincinnati"," OH",-84.5120196,39.1031182,"Rhinegeist Brewery"
"526",0.05,55,1771,"Lil SIPA","American IPA",321,16,"Lockland"," OH",-84.4577201,39.2292249,"Rivertown Brewing Company"
"527",0.055,60,1654,"Hop Bomber Rye Pale Ale","American Pale Ale (APA)",321,16,"Lockland"," OH",-84.4577201,39.2292249,"Rivertown Brewing Company"
"528",0.05,100,2579,"Jah Mon","American IPA",43,12,"Export"," PA",-79.6255989,40.4181235,"Rivertowne Brewing Company"
"529",0.07,80,1576,"RoughTail IPA","American IPA",376,16,"Midwest City"," OK",-97.3967019,35.4495065,"RoughTail Brewing Company"
"530",0.056,35,1479,"1881 California Red","American Amber / Red Ale",397,12,"Sacramento"," CA",-121.4943996,38.5815719,"Ruhstaller Beer Company"
"531",0.056,35,882,"1881 California Red Ale","American Amber / Red Ale",397,16,"Sacramento"," CA",-121.4943996,38.5815719,"Ruhstaller Beer Company"
"532",0.068,66,1867,"Saint Archer IPA","American IPA",288,12,"San Diego"," CA",-117.1610838,32.715738,"Saint Archer Brewery"
"533",0.052,40,1865,"Saint Archer Pale Ale","American Pale Ale (APA)",288,12,"San Diego"," CA",-117.1610838,32.715738,"Saint Archer Brewery"
"534",0.091,99,2063,"Count Hopula (Vault Series)","American Double / Imperial IPA",30,16,"Chandler"," AZ",-111.8412502,33.3061605,"SanTan Brewing Company"
"535",0.05,15,1934,"SunSpot Golden Ale","American Blonde Ale",30,12,"Chandler"," AZ",-111.8412502,33.3061605,"SanTan Brewing Company"
"536",0.055,20,1073,"Epicenter Amber Ale","American Amber / Red Ale",30,12,"Chandler"," AZ",-111.8412502,33.3061605,"SanTan Brewing Company"
"537",0.07,85,1071,"Hop Shock IPA","American IPA",30,12,"Chandler"," AZ",-111.8412502,33.3061605,"SanTan Brewing Company"
"538",0.055,45,850,"Devil’s Ale","American Pale Ale (APA)",30,12,"Chandler"," AZ",-111.8412502,33.3061605,"SanTan Brewing Company"
"539",0.055,45,764,"American Idiot Ale (2012)","American Pale Ale (APA)",30,12,"Chandler"," AZ",-111.8412502,33.3061605,"SanTan Brewing Company"
"540",0.07,85,317,"Hop Shock IPA (2010)","American IPA",30,12,"Chandler"," AZ",-111.8412502,33.3061605,"SanTan Brewing Company"
"541",0.055,45,285,"Devil’s Ale (2010)","American Pale Ale (APA)",30,12,"Chandler"," AZ",-111.8412502,33.3061605,"SanTan Brewing Company"
"542",0.055,20,124,"Epicenter Amber Ale (2010)","American Amber / Red Ale",30,12,"Chandler"," AZ",-111.8412502,33.3061605,"SanTan Brewing Company"
"543",0.089,88,2002,"Giant DIPA","American Double / Imperial IPA",252,16,"Santa Cruz"," CA",-122.0307963,36.9741171,"Santa Cruz Mountain Brewing"
"544",0.05,11,1477,"Oval Beach Blonde Ale","American Blonde Ale",398,16,"Douglas"," MI",-82.8498654,31.5088073,"Saugatuck Brewing Company"
"545",0.05,45,1324,"Schlafly Yakima Wheat Ale","American Pale Wheat Ale",428,12,"Saint Louis"," MO",-90.1994042,38.6270025,"Schlafly Brewing Company"
"546",0.045,30,1078,"Schlafly IPA","American IPA",428,12,"Saint Louis"," MO",-90.1994042,38.6270025,"Schlafly Brewing Company"
"547",0.074,60,1302,"Blur India Pale Ale","American IPA",432,12,"Santa Cruz"," CA",-122.0307963,36.9741171,"Seabright Brewery"
"548",0.07,105,918,"Frankenlou's IPA","American IPA",494,16,"Silverton"," OR",-107.6645057,37.811941,"Seven Brides Brewery"
"549",0.077,40,1767,"Seventh Son Hopped Red Ale","American Amber / Red Ale",183,16,"Columbus"," OH",-82.9987942,39.9611755,"Seventh Son Brewing Company"
"550",0.06,53,1766,"Humulus Nimbus Super Pale Ale","American Pale Ale (APA)",183,16,"Columbus"," OH",-82.9987942,39.9611755,"Seventh Son Brewing Company"
"551",0.07,68,1765,"Golden Ratio IPA","American IPA",183,16,"Columbus"," OH",-82.9987942,39.9611755,"Seventh Son Brewing Company"
"552",0.069,65,1539,"Monkey Fist IPA","American IPA",385,12,"Portland"," ME",-122.6764816,45.5230622,"Shipyard Brewing Company"
"553",0.072,65,2239,"Torpedo","American IPA",83,12,"Chico"," CA",-121.8374777,39.7284944,"Sierra Nevada Brewing Company"
"554",0.056,37,1905,"Sierra Nevada Pale Ale","American Pale Ale (APA)",83,16,"Chico"," CA",-121.8374777,39.7284944,"Sierra Nevada Brewing Company"
"555",0.048,26,1338,"Old Chico Crystal Wheat","American Pale Wheat Ale",83,12,"Chico"," CA",-121.8374777,39.7284944,"Sierra Nevada Brewing Company"
"556",0.072,65,426,"Torpedo","American IPA",83,16,"Chico"," CA",-121.8374777,39.7284944,"Sierra Nevada Brewing Company"
"557",0.056,37,400,"Sierra Nevada Pale Ale","American Pale Ale (APA)",83,12,"Chico"," CA",-121.8374777,39.7284944,"Sierra Nevada Brewing Company"
"558",0.065,62,2090,"Bengali","American IPA",46,24,"Brooklyn"," NY",-73.9441579,40.6781784,"Sixpoint Craft Ales"
"559",0.047,50,1962,"Sensi Harvest","American Pale Ale (APA)",46,12,"Brooklyn"," NY",-73.9441579,40.6781784,"Sixpoint Craft Ales"
"560",0.099,111,1696,"Hi-Res","American Double / Imperial IPA",46,12,"Brooklyn"," NY",-73.9441579,40.6781784,"Sixpoint Craft Ales"
"561",0.067,74,1591,"Autumnation (2013)","American IPA",46,16,"Brooklyn"," NY",-73.9441579,40.6781784,"Sixpoint Craft Ales"
"562",0.064,62,1385,"Bengali Tiger","American IPA",46,16,"Brooklyn"," NY",-73.9441579,40.6781784,"Sixpoint Craft Ales"
"563",0.052,11,630,"Apollo","American Pale Wheat Ale",46,16,"Brooklyn"," NY",-73.9441579,40.6781784,"Sixpoint Craft Ales"
"564",0.091,103,628,"Resin","American Double / Imperial IPA",46,12,"Brooklyn"," NY",-73.9441579,40.6781784,"Sixpoint Craft Ales"
"565",0.064,62,422,"Bengali Tiger (2011)","American IPA",46,16,"Brooklyn"," NY",-73.9441579,40.6781784,"Sixpoint Craft Ales"
"566",0.068,65,1521,"Modus Hoperandi","American IPA",264,12,"Durango"," CO",-107.8800667,37.27528,"Ska Brewing Company"
"567",0.068,65,67,"Modus Hoperandi","American IPA",264,12,"Durango"," CO",-107.8800667,37.27528,"Ska Brewing Company"
"568",0.058,39,1792,"Iron Butt Red Ale","American Amber / Red Ale",313,12,"Meridian"," ID",-88.703656,32.3643098,"Slanted Rock Brewing Company"
"569",0.071,92,1609,"Initial Point India Pale Ale","American IPA",313,12,"Meridian"," ID",-88.703656,32.3643098,"Slanted Rock Brewing Company"
"570",0.06,70,2305,"Homefront IPA","American IPA",163,12,"Phoenixville"," PA",-75.5149128,40.1303822,"Sly Fox Brewing Company"
"571",0.084,90,894,"Odyssey Imperial IPA","American Double / Imperial IPA",371,12,"Pottstown"," PA",-75.6496302,40.2453741,"Sly Fox Brewing Company"
"572",0.07,113,24,"113 IPA","American IPA",371,12,"Pottstown"," PA",-75.6496302,40.2453741,"Sly Fox Brewing Company"
"573",0.051,40,20,"Phoenix Pale Ale","American Pale Ale (APA)",371,12,"Pottstown"," PA",-75.6496302,40.2453741,"Sly Fox Brewing Company"
"574",0.07,88,2407,"Rule G IPA","American IPA",115,12,"Norfolk"," VA",-76.2858726,36.8507689,"Smartmouth Brewing Company"
"575",0.058,35,2406,"Murphy's Law","American Amber / Red Ale",115,12,"Norfolk"," VA",-76.2858726,36.8507689,"Smartmouth Brewing Company"
"576",0.06,55,1606,"Snow King Pale Ale","American Pale Ale (APA)",191,12,"Jackson"," WY",-90.1848103,32.2987573,"Snake River Brewing Company"
"577",0.052,32,402,"Snake River Pale Ale","American Pale Ale (APA)",191,12,"Jackson"," WY",-90.1848103,32.2987573,"Snake River Brewing Company"
"578",0.068,60,393,"Pako’s EyePA","American IPA",191,12,"Jackson"," WY",-90.1848103,32.2987573,"Snake River Brewing Company"
"579",0.063,100,1596,"Dagger Falls IPA","American IPA",309,12,"Boise"," ID",-116.2146068,43.6187102,"Sockeye Brewing Company"
"580",0.063,100,1595,"Dagger Falls IPA","American IPA",309,12,"Boise"," ID",-116.2146068,43.6187102,"Sockeye Brewing Company"
"581",0.052,32,1151,"Hell-Diver Pale Ale","American Pale Ale (APA)",309,12,"Boise"," ID",-116.2146068,43.6187102,"Sockeye Brewing Company"
"582",0.046,12,1150,"Woolybugger Wheat","American Pale Wheat Ale",309,12,"Boise"," ID",-116.2146068,43.6187102,"Sockeye Brewing Company"
"583",0.063,100,879,"Dagger Falls IPA","American IPA",309,12,"Boise"," ID",-116.2146068,43.6187102,"Sockeye Brewing Company"
"584",0.055,40,1971,"Texas Pale Ale (TPA)","American IPA",257,16,"South Austin"," TX",-97.8067305,30.2029974,"South Austin Brewery"
"585",0.055,65,1282,"Nice Rack IPA","American IPA",436,16,"Medford"," OR",-122.8755949,42.3265152,"Southern Oregon Brewing Company"
"586",0.075,72,2362,"2014 IPA Cicada Series","American IPA",133,16,"Hattiesburg"," MS",-89.2903392,31.3271189,"Southern Prohibition Brewing Com..."
"587",0.077,65,2346,"Sinister Minister Black IPA","American IPA",133,16,"Hattiesburg"," MS",-89.2903392,31.3271189,"Southern Prohibition Brewing Com..."
"588",0.058,60,2297,"Devil's Harvest Extra Pale Ale","American Pale Ale (APA)",133,12,"Hattiesburg"," MS",-89.2903392,31.3271189,"Southern Prohibition Brewing Com..."
"589",0.05,20,2296,"Suzy B Dirty Blonde Ale","American Blonde Ale",133,12,"Hattiesburg"," MS",-89.2903392,31.3271189,"Southern Prohibition Brewing Com..."
"590",0.08,80,1745,"Mississippi Fire Ant","American Amber / Red Ale",133,16,"Hattiesburg"," MS",-89.2903392,31.3271189,"Southern Prohibition Brewing Com..."
"591",0.05,20,1118,"Suzy B Dirty Blonde Ale","American Blonde Ale",133,16,"Hattiesburg"," MS",-89.2903392,31.3271189,"Southern Prohibition Brewing Com..."
"592",0.058,60,1117,"Devil's Harvest Extra Pale Ale","American Pale Ale (APA)",133,16,"Hattiesburg"," MS",-89.2903392,31.3271189,"Southern Prohibition Brewing Com..."
"593",0.065,45,2387,"Pine Belt Pale Ale","American Pale Ale (APA)",118,12,"Conroe"," TX",-95.4560512,30.3118769,"Southern Star Brewing Company"
"594",0.085,110,1728,"Red Cockaded Ale","American Double / Imperial IPA",118,12,"Conroe"," TX",-95.4560512,30.3118769,"Southern Star Brewing Company"
"595",0.092,100,1497,"Valkyrie Double IPA","American Double / Imperial IPA",118,12,"Conroe"," TX",-95.4560512,30.3118769,"Southern Star Brewing Company"
"596",0.085,110,1011,"Red Cockaded Ale (2013)","American Double / Imperial IPA",118,12,"Conroe"," TX",-95.4560512,30.3118769,"Southern Star Brewing Company"
"597",0.05,20,856,"Bombshell Blonde","American Blonde Ale",118,16,"Conroe"," TX",-95.4560512,30.3118769,"Southern Star Brewing Company"
"598",0.099,100,853,"PRO-AM (2012) (2012)","American Double / Imperial IPA",118,12,"Conroe"," TX",-95.4560512,30.3118769,"Southern Star Brewing Company"
"599",0.065,45,45,"Pine Belt Pale Ale","American Pale Ale (APA)",118,16,"Conroe"," TX",-95.4560512,30.3118769,"Southern Star Brewing Company"
"600",0.05,20,44,"Bombshell Blonde","American Blonde Ale",118,12,"Conroe"," TX",-95.4560512,30.3118769,"Southern Star Brewing Company"
"601",0.047,35,2486,"Baby Daddy Session IPA","American IPA",78,12,"San Francisco"," CA",-122.4194155,37.7749295,"Speakasy Ales & Lagers"
"602",0.065,52,1205,"Northern Lights India Pale Ale","American IPA",383,16,"Crozet"," VA",-78.700575,38.0695815,"Starr Hill Brewery"
"603",0.065,52,368,"Northern Lights India Pale Ale","American IPA",383,12,"Crozet"," VA",-78.700575,38.0695815,"Starr Hill Brewery"
"604",0.065,65,2386,"Third Eye Enlightened Pale Ale","American Pale Ale (APA)",119,12,"Durango"," CO",-107.8800667,37.27528,"Steamworks Brewing Company"
"605",0.065,65,90,"Third Eye Pale Ale","American IPA",119,12,"Durango"," CO",-107.8800667,37.27528,"Steamworks Brewing Company"
"606",0.054,33,2270,"Point Cascade Pale Ale (2013)","American Pale Ale (APA)",131,12,"Stevens Point"," WI",-89.574563,44.5235792,"Stevens Point Brewery"
"607",0.063,64,2150,"Beyond The Pale IPA","American IPA",131,12,"Stevens Point"," WI",-89.574563,44.5235792,"Stevens Point Brewery"
"608",0.052,7,1225,"Point Nude Beach Summer Wheat","American Pale Wheat Ale",131,16,"Stevens Point"," WI",-89.574563,44.5235792,"Stevens Point Brewery"
"609",0.05,7,816,"Point Nude Beach Summer Wheat","American Pale Wheat Ale",131,12,"Stevens Point"," WI",-89.574563,44.5235792,"Stevens Point Brewery"
"610",0.05,7,772,"Point Nude Beach Summer Wheat (2011)","American Pale Wheat Ale",131,12,"Stevens Point"," WI",-89.574563,44.5235792,"Stevens Point Brewery"
"611",0.05,7,141,"Point Nude Beach Summer Wheat (2010)","American Pale Wheat Ale",131,12,"Stevens Point"," WI",-89.574563,44.5235792,"Stevens Point Brewery"
"612",0.054,33,140,"Point Cascade Pale Ale","American Pale Ale (APA)",131,12,"Stevens Point"," WI",-89.574563,44.5235792,"Stevens Point Brewery"
"613",0.051,31,953,"Wisco Disco","American Amber / Red Ale",486,16,"Green Bay"," WI",-88.019826,44.519159,"Stillmank Beer Company"
"614",0.072,70,637,"Monkeynaut IPA","American IPA",412,12,"Huntsville"," AL",-86.5861037,34.7303688,"Straight to Ale"
"615",0.053,49,2352,"Extra Pale Ale","American Pale Ale (APA)",138,12,"St Paul"," MN",-93.0899578,44.9537029,"Summit Brewing Company"
"616",0.047,55,2473,"Hopvale Organic Ale","American Pale Ale (APA)",58,16,"St. Paul"," MN",-93.0899578,44.9537029,"Summit Brewing Company"
"617",0.083,100,2415,"Unchained #18 Hop Silo","American Double / Imperial IPA",58,16,"St. Paul"," MN",-93.0899578,44.9537029,"Summit Brewing Company"
"618",0.064,75,2001,"Fistful Of Hops Red","American IPA",25,16,"Indianapolis"," IN",-86.158068,39.768403,"Sun King Brewing Company"
"619",0.063,75,2000,"Fistful of Hops Orange","American IPA",25,16,"Indianapolis"," IN",-86.158068,39.768403,"Sun King Brewing Company"
"620",0.064,75,1999,"Fistful Of Hops Blue","American IPA",25,16,"Indianapolis"," IN",-86.158068,39.768403,"Sun King Brewing Company"
"621",0.064,75,1996,"Fistful of Hops Green","American IPA",25,16,"Indianapolis"," IN",-86.158068,39.768403,"Sun King Brewing Company"
"622",0.075,77,1420,"Grapefruit Jungle (GFJ)","American IPA",25,16,"Indianapolis"," IN",-86.158068,39.768403,"Sun King Brewing Company"
"623",0.056,50,1389,"Osiris Pale Ale","American Pale Ale (APA)",25,16,"Indianapolis"," IN",-86.158068,39.768403,"Sun King Brewing Company"
"624",0.091,91,651,"Isis","American Double / Imperial IPA",25,16,"Indianapolis"," IN",-86.158068,39.768403,"Sun King Brewing Company"
"625",0.075,77,532,"Grapefruit Jungle (GFJ) (2011)","American IPA",25,16,"Indianapolis"," IN",-86.158068,39.768403,"Sun King Brewing Company"
"626",0.056,50,54,"Osiris Pale Ale (2010)","American Pale Ale (APA)",25,16,"Indianapolis"," IN",-86.158068,39.768403,"Sun King Brewing Company"
"627",0.073,69,1112,"Overrated! West Coast Style IPA","American IPA",61,16,"Brooklyn Center"," MN",-93.3327283,45.076076,"Surly Brewing Company"
"628",0.075,90,329,"WET","American IPA",61,16,"Brooklyn Center"," MN",-93.3327283,45.076076,"Surly Brewing Company"
"629",0.097,120,15,"Abrasive Ale","American Double / Imperial IPA",61,16,"Brooklyn Center"," MN",-93.3327283,45.076076,"Surly Brewing Company"
"630",0.062,99,12,"Furious","American IPA",61,16,"Brooklyn Center"," MN",-93.3327283,45.076076,"Surly Brewing Company"
"631",0.073,50,1242,"Big Nose","American IPA",447,12,"Gainesville"," FL",-82.3248262,29.6516344,"Swamp Head Brewery"
"632",0.056,35,1240,"Stump Knocker Pale Ale","American Pale Ale (APA)",447,12,"Gainesville"," FL",-82.3248262,29.6516344,"Swamp Head Brewery"
"633",0.08,95,1229,"Dodgy Knight Imperial IPA","American Double / Imperial IPA",449,12,"San Diego"," CA",-117.1610838,32.715738,"TailGate Beer"
"634",0.05,44,663,"TailGate IPA","American IPA",449,24,"San Diego"," CA",-117.1610838,32.715738,"TailGate Beer"
"635",0.05,44,662,"TailGate IPA","American IPA",449,12,"San Diego"," CA",-117.1610838,32.715738,"TailGate Beer"
"636",0.05,19,622,"Blacktop Blonde","American Blonde Ale",449,24,"San Diego"," CA",-117.1610838,32.715738,"TailGate Beer"
"637",0.05,19,362,"Blacktop Blonde","American Blonde Ale",449,12,"San Diego"," CA",-117.1610838,32.715738,"TailGate Beer"
"638",0.068,110,1017,"Ethos IPA","American IPA",45,16,"Manhattan"," KS",-73.9712488,40.7830603,"Tallgrass Brewing Company"
"639",0.05,20,676,"Halcyon Unfiltered Wheat","American Pale Wheat Ale",45,16,"Manhattan"," KS",-73.9712488,40.7830603,"Tallgrass Brewing Company"
"640",0.05,20,412,"Halcyon Unfiltered Wheat","American Pale Wheat Ale",45,12,"Manhattan"," KS",-73.9712488,40.7830603,"Tallgrass Brewing Company"
"641",0.072,93,104,"Oasis (2010)","American Double / Imperial IPA",45,16,"Manhattan"," KS",-73.9712488,40.7830603,"Tallgrass Brewing Company"
"642",0.063,60,101,"Tallgrass IPA","American IPA",45,16,"Manhattan"," KS",-73.9712488,40.7830603,"Tallgrass Brewing Company"
"643",0.07,80,544,"Old Elephant Foot IPA","American IPA",490,16,"Tampa"," FL",-82.4571776,27.950575,"Tampa Bay Brewing Company"
"644",0.047,42,1082,"RecreationAle","American Pale Ale (APA)",469,12,"Athens"," GA",23.7275388,37.9838096,"Terrapin Brewing Company"
"645",0.08,120,1111,"Heady Topper","American Double / Imperial IPA",272,16,"Waterbury"," VT",-73.0514965,41.5581525,"The Alchemist"
"646",0.08,120,379,"Heady Topper","American Double / Imperial IPA",272,16,"Waterbury"," VT",-73.0514965,41.5581525,"The Alchemist"
"647",0.046,20,1200,"Bomber Mountain Amber Ale (2013)","American Amber / Red Ale",457,12,"Sheridan"," WY",-106.9561791,44.7971939,"The Black Tooth Brewing Company"
"648",0.07,75,1199,"Indian Paintbrush IPA","American IPA",457,12,"Sheridan"," WY",-106.9561791,44.7971939,"The Black Tooth Brewing Company"
"649",0.059,15,1197,"Wagon Box Wheat Beer","American Pale Wheat Ale",457,12,"Sheridan"," WY",-106.9561791,44.7971939,"The Black Tooth Brewing Company"
"650",0.052,16,1748,"Bronx Summer Pale Ale","American Pale Ale (APA)",329,16,"Bronx"," NY",-73.8648268,40.8447819,"The Bronx Brewery"
"651",0.063,50,1037,"Bronx Pale Ale","American Pale Ale (APA)",329,16,"Bronx"," NY",-73.8648268,40.8447819,"The Bronx Brewery"
"652",0.052,35,2594,"Surfrider","American Pale Ale (APA)",33,16,"Torrance"," CA",-118.3406288,33.8358492,"The Dudes' Brewing Company"
"653",0.099,101,1561,"Double Trunk","American Double / Imperial IPA",33,16,"Torrance"," CA",-118.3406288,33.8358492,"The Dudes' Brewing Company"
"654",0.046,45,1749,"Just IPA","American IPA",328,12,"Burlington"," VT",-73.212072,44.4758825,"The Just Beer Project"
"655",0.048,18,2347,"Hunny Do Wheat","American Pale Wheat Ale",142,12,"Cold Spring"," MN",-73.954583,41.4200937,"Third Street Brewhouse"
"656",0.04,18,2319,"Knotty Blonde Ale","American Blonde Ale",153,12,"Sisters"," OR",-121.5492118,44.2909491,"Three Creeks Brewing"
"657",0.062,82,2316,"Hoodoo Voodoo IPA","American IPA",153,12,"Sisters"," OR",-121.5492118,44.2909491,"Three Creeks Brewing"
"658",0.06,50,1912,"40 Mile IPA","American IPA",273,12,"Charlottesville"," VA",-78.4766781,38.0293059,"Three Notch'd Brewing Company"
"659",0.055,64,2617,"Citra Faced","American Pale Wheat Ale",21,16,"Martinsville"," IN",-79.8725386,36.6915262,"Three Pints Brewing"
"660",0.054,37,2615,"Pale","American Pale Ale (APA)",21,16,"Martinsville"," IN",-79.8725386,36.6915262,"Three Pints Brewing"
"661",0.085,115,1449,"Overlord Imperial IPA","American Double / Imperial IPA",17,16,"Evansville"," IN",-87.5710898,37.9715592,"Tin Man Brewing Company"
"662",0.058,36,951,"Alloy","American IPA",17,16,"Evansville"," IN",-87.5710898,37.9715592,"Tin Man Brewing Company"
"663",0.07,60,1755,"Juke Joint IPA","American IPA",152,12,"Baton Rouge"," LA",-91.1403196,30.4582829,"Tin Roof Brewing Company"
"664",0.045,18,529,"Tin Roof Blonde Ale","American Blonde Ale",152,12,"Baton Rouge"," LA",-91.1403196,30.4582829,"Tin Roof Brewing Company"
"665",0.055,37,495,"Voodoo Bengal Pale Ale","American Pale Ale (APA)",152,12,"Baton Rouge"," LA",-91.1403196,30.4582829,"Tin Roof Brewing Company"
"666",0.045,28,494,"Perfect Tin Amber","American Amber / Red Ale",152,12,"Baton Rouge"," LA",-91.1403196,30.4582829,"Tin Roof Brewing Company"
"667",0.073,87,1856,"IPA & a Half","American IPA",291,12,"Idaho Springs"," CO",-105.5136081,39.7424881,"Tommyknocker Brewery"
"668",0.062,72,1938,"Almanac IPA","American IPA",265,12,"Albuquerque"," NM",-106.6055534,35.0853336,"Tractor Brewing Company"
"669",0.06,30,1936,"Farmer's Tan Red Ale","American Amber / Red Ale",265,12,"Albuquerque"," NM",-106.6055534,35.0853336,"Tractor Brewing Company"
"670",0.075,93,2444,"Nugget Nectar","American Amber / Red Ale",97,16,"Hershey"," PA",-76.6502468,40.2859239,"Tröegs Brewing Company"
"671",0.075,85,1509,"Perpetual IPA","American IPA",97,12,"Hershey"," PA",-76.6502468,40.2859239,"Tröegs Brewing Company"
"672",0.055,52,433,"Greenville Pale Ale","American Pale Ale (APA)",539,12,"Greenville"," DE",-82.3940104,34.8526176,"Twin Lakes Brewing Company"
"673",0.062,65,641,"Hoppy Boy","American IPA",520,16,"Boulder"," CO",-105.2705456,40.0149856,"Twisted Pine Brewing Company"
"674",0.075,63,2458,"Chupahopra","American IPA",38,12,"Dripping Springs"," TX",-98.0866781,30.1902067,"Twisted X Brewing Company"
"675",0.041,41,2235,"Day Hike Session","American IPA",190,12,"Seattle"," WA",-122.3320708,47.6062095,"Two Beers Brewing Company"
"676",0.048,48,1661,"Trailhead ISA","American IPA",190,12,"Seattle"," WA",-122.3320708,47.6062095,"Two Beers Brewing Company"
"677",0.052,27,1660,"Immersion Amber","American Amber / Red Ale",190,12,"Seattle"," WA",-122.3320708,47.6062095,"Two Beers Brewing Company"
"678",0.062,70,1659,"Evo IPA","American IPA",190,12,"Seattle"," WA",-122.3320708,47.6062095,"Two Beers Brewing Company"
"679",0.062,70,1173,"Evolutionary IPA (2012)","American IPA",190,12,"Seattle"," WA",-122.3320708,47.6062095,"Two Beers Brewing Company"
"680",0.057,36,560,"Persnickety Pale","American Pale Ale (APA)",190,12,"Seattle"," WA",-122.3320708,47.6062095,"Two Beers Brewing Company"
"681",0.052,27,518,"Immersion Amber Ale (2011)","American Amber / Red Ale",190,12,"Seattle"," WA",-122.3320708,47.6062095,"Two Beers Brewing Company"
"682",0.062,70,505,"Evolutionary IPA (2011)","American IPA",190,12,"Seattle"," WA",-122.3320708,47.6062095,"Two Beers Brewing Company"
"683",0.048,48,482,"Trailhead India Style Session Ale (2011)","American IPA",190,12,"Seattle"," WA",-122.3320708,47.6062095,"Two Beers Brewing Company"
"684",0.063,69,2497,"Wobble","American IPA",74,16,"Warrenville"," IL",-88.1734021,41.817807,"Two Brothers Brewing Company"
"685",0.051,36,1121,"Sidekick Extra Pale Ale","American Pale Ale (APA)",74,12,"Warrenville"," IL",-88.1734021,41.817807,"Two Brothers Brewing Company"
"686",0.04,42,1925,"Trader Session IPA","American IPA",159,12,"Salt Lake City"," UT",-111.8910474,40.7607793,"Uinta Brewing Company"
"687",0.073,83,1723,"Hop Nosh IPA","American IPA",159,12,"Salt Lake City"," UT",-111.8910474,40.7607793,"Uinta Brewing Company"
"688",0.04,17,1212,"SUM'R","American Blonde Ale",159,12,"Salt Lake City"," UT",-111.8910474,40.7607793,"Uinta Brewing Company"
"689",0.073,82,1089,"Hop Notch IPA (2013)","American IPA",159,12,"Salt Lake City"," UT",-111.8910474,40.7607793,"Uinta Brewing Company"
"690",0.04,34,1088,"Cutthroat Pale Ale","American Pale Ale (APA)",159,12,"Salt Lake City"," UT",-111.8910474,40.7607793,"Uinta Brewing Company"
"691",0.04,29,974,"WYLD Extra Pale Ale","American Pale Ale (APA)",159,12,"Salt Lake City"," UT",-111.8910474,40.7607793,"Uinta Brewing Company"
"692",0.06,75,2372,"The Green Room","American IPA",126,16,"Austin"," TX",-97.7430608,30.267153,"Uncle Billy's Brewery and Smokeh..."
"693",0.085,90,2507,"Double Duckpin","American Double / Imperial IPA",71,12,"Baltimore"," MD",-76.6121893,39.2903848,"Union Craft Brewing"
"694",0.045,50,2190,"Campside Session IPA","American IPA",202,16,"Bloomington"," IN",-86.5263857,39.165325,"Upland Brewing Company"
"695",0.099,90,1315,"Upslope Imperial India Pale Ale","American Double / Imperial IPA",51,19.2,"Boulder"," CO",-105.2705456,40.0149856,"Upslope Brewing Company"
"696",0.065,70,381,"Upstate I.P.W.","American IPA",546,12,"Elmira"," NY",-76.8077338,42.0897965,"Upstate Brewing Company"
"697",0.09,75,1825,"Squatters Hop Rising Double IPA","American Double / Imperial IPA",302,12,"Salt Lake City"," UT",-111.8910474,40.7607793,"Utah Brewers Cooperative"
"698",0.09,75,1680,"Squatters Hop Rising Double IPA (2014)","American Double / Imperial IPA",302,12,"Salt Lake City"," UT",-111.8910474,40.7607793,"Utah Brewers Cooperative"
"699",0.073,85,1603,"Good Vibes IPA","American IPA",322,12,"Meadville"," PA",-80.1514484,41.6414438,"Voodoo Brewery"
"700",0.04,37,1846,"Wachusett Light IPA","American IPA",295,12,"Westminster"," MA",-0.1356583,51.4974948,"Wachusett Brewing Company"
"701",0.06,55,1845,"Green Monsta IPA","American IPA",295,12,"Westminster"," MA",-0.1356583,51.4974948,"Wachusett Brewing Company"
"702",0.056,50,1844,"Wachusett IPA","American IPA",295,12,"Westminster"," MA",-0.1356583,51.4974948,"Wachusett Brewing Company"
"703",0.085,85,1418,"Larry Imperial IPA","American Double / Imperial IPA",295,12,"Westminster"," MA",-0.1356583,51.4974948,"Wachusett Brewing Company"
"704",0.04,37,1029,"Wachusett Light IPA (2013)","American IPA",295,12,"Westminster"," MA",-0.1356583,51.4974948,"Wachusett Brewing Company"
"705",0.06,55,618,"Green Monsta IPA","American IPA",295,12,"Westminster"," MA",-0.1356583,51.4974948,"Wachusett Brewing Company"
"706",0.052,67,2450,"Self Starter","American IPA",94,16,"Dayton"," OH",-84.1916069,39.7589478,"Warped Wing Brewing Company"
"707",0.068,65,575,"Westbrook IPA","American IPA",384,12,"Mt. Pleasant"," SC",-79.8284258,32.8323225,"Westbrook Brewing Company"
"708",0.058,55,1550,"Charlie in the Rye","American IPA",351,12,"Westfield"," MA",-86.1274888,40.0428151,"Westfield River Brewing Company"
"709",0.075,89,2343,"O’Malley’s IPA","American IPA",132,12,"Weston"," MO",-80.3997748,26.1003654,"Weston Brewing Company"
"710",0.082,100,1619,"Hop Slayer Double IPA","American Double / Imperial IPA",361,12,"Lake Barrington"," IL",-88.167149,42.2122015,"Wild Onion Brewing Company"
"711",0.052,27,971,"Phat Chance","American Blonde Ale",361,12,"Lake Barrington"," IL",-88.167149,42.2122015,"Wild Onion Brewing Company"
"712",0.082,100,740,"Hop Slayer Double IPA (2011)","American Double / Imperial IPA",361,12,"Lake Barrington"," IL",-88.167149,42.2122015,"Wild Onion Brewing Company"
"713",0.082,100,430,"Hop Slayer Double IPA (2011)","American Double / Imperial IPA",361,12,"Lake Barrington"," IL",-88.167149,42.2122015,"Wild Onion Brewing Company"
"714",0.056,41,162,"Paddy Pale Ale","American Pale Ale (APA)",361,12,"Lake Barrington"," IL",-88.167149,42.2122015,"Wild Onion Brewing Company"
"715",0.051,45,1194,"Alpha Ale","American Pale Ale (APA)",181,12,"Nellysford"," VA",-78.8733658,37.8897544,"Wild Wolf Brewing Company"
"716",0.074,83,762,"Ace IPA","American IPA",509,16,"Tacoma"," WA",-122.4442906,47.2528768,"Wingman Brewers"
"717",0.071,60,2148,"#002 American I.P.A.","American IPA",211,12,"Verona"," WI",10.9916215,45.4383842,"Wisconsin Brewing Company"
"718",0.048,38,2146,"#004 Session I.P.A.","American IPA",211,12,"Verona"," WI",10.9916215,45.4383842,"Wisconsin Brewing Company"
"719",0.062,61,1470,"Ananda India Pale Ale","American IPA",239,12,"Memphis"," TN",-90.0489801,35.1495343,"Wiseacre Brewing Company"
"720",0.058,72,2627,"Train Hopper","American IPA",14,12,"South Lyon"," MI",-83.6516063,42.46059,"Witch's Hat Brewing Company"
"721",0.059,135,1676,"Troopers Alley IPA","American IPA",344,12,"Abingdon"," VA",-81.9773482,36.7098335,"Wolf Hills Brewing Company"
"722",0.065,82,2417,"4000 Footer IPA","American IPA",109,12,"North Woodstock"," NH",-71.6864932,44.0302045,"Woodstock Inn, Station & Brewery"
"723",0.065,69,1697,"Be Hoppy IPA","American IPA",339,16,"Worcester"," MA",-71.8022934,42.2625932,"Wormtown Brewery"
"724",0.069,69,2194,"Worthy IPA","American IPA",199,12,"Bend"," OR",-121.3153096,44.0581728,"Worthy Brewing Company"
"725",0.077,30,1513,"Lights Out Vanilla Cream Extra Stout","American Double / Imperial IPA",199,12,"Bend"," OR",-121.3153096,44.0581728,"Worthy Brewing Company"
"726",0.069,69,1512,"Worthy IPA (2013)","American IPA",199,12,"Bend"," OR",-121.3153096,44.0581728,"Worthy Brewing Company"
"727",0.06,50,1511,"Worthy Pale","American Pale Ale (APA)",199,12,"Bend"," OR",-121.3153096,44.0581728,"Worthy Brewing Company"
"728",0.055,40,145,"Silverback Pale Ale","American Pale Ale (APA)",424,12,"Denver"," CO",-104.990251,39.7392358,"Wynkoop Brewing Company"
